id,documentId,name,type,phone,whatsapp,openingHour,address,nonStop,latitude,longitude,promoted,createdAt,updatedAt,publishedAt,locale
9934,hzwb6otomschu8gk40i58ufy,Aran 690 Biləsuvar,PHARMACY,+994252950297;+994554558968,,8:00-23:00/7,"Biləsuvar şəh., H.Əliyev pr., 40E",False,39.45453009,48.54693637,False,2025-06-04T20:13:06.829Z,2025-11-19T12:56:26.160Z,2025-11-19T12:56:26.598Z,az
9981,o6qo2676vpmwdaym97v9exxl,Buta Əhmədli 62,PHARMACY,+994552057791;+994123726652,,9:00-23:00/7,"Bakı şəh., Xətai ray., Nəsrəddin Tusi küç., 29",False,40.36712662,49.96228241,False,2025-06-04T20:13:03.945Z,2025-11-19T12:56:27.284Z,2025-11-19T12:56:27.694Z,az
10046,o392rapdz13uwhzzy5fsusk4,Nəsir 500 Aptek,PHARMACY,+994554558143;+994125144825,,24/7,"Bakı şəh., Nərimanov ray., A.Məmmədov küç., 30",True,40.39410832,49.88123968,False,2025-06-04T20:13:08.500Z,2025-11-19T12:56:29.338Z,2025-11-19T12:56:30.163Z,az
10094,ao5xq6hdxgg6m4iqfpa53kvv,Oskar,PHARMACY,+994554558574;+994125604720,,9:00-23:00/7,"Bakı şəh., Binaqədi ray., Mir Cəlal küç., 72",False,40.42100284,49.81487989,False,2025-06-04T20:13:03.877Z,2025-11-19T12:56:30.983Z,2025-11-19T12:56:31.261Z,az
9930,m0m8o7xh8oskopkuwsp6o7nb,Dokta 1085 Xaçmaz,PHARMACY,+994557271570,,,"Xaçmaz şəh., N.Nərimanov küç.",False,41.46183316,48.79955428,False,2025-06-04T20:13:08.920Z,2025-11-19T12:56:26.008Z,2025-11-19T12:56:26.500Z,az
9957,he0dr4iy0j0bhgxginb723ud,Aloe Bravo Yeni Günəşli,PHARMACY,+994552043366,,9:00-22:00/7,"Bakı şəh., Suraxanı ray., Yeni Günəşli qəs, İlqar Musayev küç.",False,40.3870383,49.97542582,False,2025-06-04T20:13:07.432Z,2025-11-19T12:56:26.783Z,2025-11-19T12:56:27.174Z,az
9982,f15fhswsf0z3z353haif8a29,Dokta  1029  Lənkəran,PHARMACY,+994506272423;+994252543392,,,"Lənkəran şəh., Nizami küç., 87",False,38.75874391,48.8377192,False,2025-06-04T20:13:09.515Z,2025-11-19T12:56:27.558Z,2025-11-19T12:56:27.768Z,az
10102,lcsg9c2uiupi28q4k24tug8j,Kanon AS Gəncə,PHARMACY,+994554559068;+994222651242,,8:00-23:00/7,"Gəncə şəh., 4-cü mkr, M.Xələfov küç., 18 A",False,40.69642667,46.38263353,False,2025-06-04T20:13:04.062Z,2025-11-19T12:56:31.162Z,2025-11-19T12:56:31.453Z,az
10123,ijbg6j4ok8hm0ta5itowbxmb,Dokta 301 OKİ Qusar,PHARMACY,+994507239802;+994233852915,,8:00-18:00/7,"Qusarı şəh., F.Musayev küç., 27",False,41.42579152,48.43100386,False,2025-06-04T20:13:04.155Z,2025-11-19T12:56:31.645Z,2025-11-19T12:56:31.897Z,az
9927,i1vskma3igfpzmctrzblcwv7,Buta FHN,PHARMACY,+994552136766;+994125692570,,9:00-22:30/7,"Bakı şəh., Binəqədi ray., 9-cu mkr, A.Məmmədov küç., 34",False,40.420311,49.808555,False,2025-06-04T20:13:03.898Z,2025-11-19T12:56:25.834Z,2025-11-19T12:56:26.357Z,az
9989,epktorpx9loq9ijusalhdn30,Aloe Bravo Sumqayıt,PHARMACY,+994992044405,,9:00-22:00/7,"Sumqayıt şəh., Ü.Hacıbəyov küç., 2",False,40.57360597,49.69117393,False,2025-06-04T20:13:07.438Z,2025-11-19T12:56:27.467Z,2025-11-19T12:56:27.921Z,az
10060,uvkdvn2ez4bxuelz75lgs0qv,Aloe Bravo Oazis,PHARMACY,+994552043388,,9:00-22:00/7,"Bakı şəh., Binəqədi ray., Ş.Məmmədova küç., ev 2",False,40.41971509,49.84704915,False,2025-06-04T20:13:07.561Z,2025-11-19T12:56:30.032Z,2025-11-19T12:56:30.423Z,az
9873,mokqs9ui7070uct0461zog3n,Zeytun metro Elmlər Akademiyası,PHARMACY,+994502731191,,8:00-23:00/7,"Bakı şəh., Yasamal ray., H.Cavid pr. (metronun içi- Elmlər Akamediyası tərəfindən əsas girişi)",False,40.375185,49.815446,False,2025-06-04T20:13:04.030Z,2025-11-19T12:56:23.260Z,2025-11-19T12:56:23.715Z,az
9958,qxz88lbcwbff5r30pbdxoslq,Ferromed,PHARMACY,+994554558597;+994123234364,,9:00-23:00/7,"Bakı şəh., Nizami ray., Q.Qarayev pros., ev 26",False,40.41764896,49.9320668,False,2025-06-04T20:13:07.417Z,2025-11-19T12:56:26.910Z,2025-11-19T12:56:27.200Z,az
9983,jgzwf3oxckgz2wavvg864zto,NAR,PHARMACY,+994554555832;+994125648786,,8:00-23:00/7,"Bakı şəh., Nərimanov ray., A.Nemətulla küç., 63",False,40.40766434,49.86792345,False,2025-06-04T20:13:03.967Z,2025-11-19T12:56:27.470Z,2025-11-19T12:56:27.788Z,az
10023,q4dsltipb8hm1udwm9jqdxn5,Kanon Masallı 1,PHARMACY,+994212555505;+994554555875,,8:00-22:00/7,"Masallı şəh., 20 Yanvar küç.",False,38.75478726,48.85219478,False,2025-06-04T20:13:07.186Z,2025-11-19T12:56:28.966Z,2025-11-19T12:56:29.357Z,az
9935,j0gzs62i9b6xnag3lwatm363,Buta 20-ci sahə,PHARMACY,+994552058100;+994125812991,,9:00-23:00/7,"Bakı şəh., Səbail ray., Salyan dön., 2a",False,40.33000078,49.8192056,False,2025-06-04T20:13:03.827Z,2025-11-19T12:56:26.188Z,2025-11-19T12:56:26.620Z,az
10038,gxnbclf7eeembw21efolqdk3,İmmuno 740 İmişli,PHARMACY,+994554559057;+994212461007,,8:00-23:00/7,"İmişli şəh., H.Əliyev pr., 164 A",False,39.86988,48.060489,False,2025-06-04T20:13:04.020Z,2025-11-19T12:56:29.700Z,2025-11-19T12:56:30.047Z,az
9906,eidtqcez9ta49pr0wpowniqo,Kanon Stimol Sumqayıt,PHARMACY,+994554558563;+994186443583,,9:00-22:00/7,"Sumqayıt şəh., 2-ci  mkr, Sülh küç.",False,40.58688929,49.67082161,False,2025-06-04T20:13:03.953Z,2025-11-19T12:56:24.784Z,2025-11-19T12:56:25.482Z,az
9945,efj78u4loo4rgirq3tvhe97a,Zeytun metro Koroğlu,PHARMACY,+994512501929,,8:00-23:00/7,"Bakı şəh., Nizami ray., H.Əliyev pr.",False,40.42095829,49.9183988,False,2025-06-04T20:13:03.975Z,2025-11-19T12:56:25.900Z,2025-11-19T12:56:26.815Z,az
10129,vpthhlqnhlm699kqpup7mii9,Aloe Lermontov,PHARMACY,+994992044408,+994992044408,9:00-22:00/7,"Bakı şəh., Səbail ray., Lermontov küç., 121",False,40.36616964,49.8302428,False,2025-06-04T20:13:08.967Z,2025-11-19T12:56:31.831Z,2025-11-19T12:56:32.092Z,az
10151,m33ly8cdfbdfx8pffiq03rq2,Buta 273 Xalqalar Dostluğu,PHARMACY,+994554678713,,9:00-22:00/7,"Bakı şəh., Nizami ray., Q.Qarayev pr., 119",False,40.39756401,49.95300071,False,2025-06-04T20:13:08.927Z,2025-11-19T12:56:32.354Z,2025-11-19T12:56:32.664Z,az
9905,g5u7zxg57u17g0kdjr3kk62y,Aloe Ağa Nemətulla,PHARMACY,+994555153558,,,"Nərimanov ray., Aga Neymətulla küç., ev 50 (Nəriman Nərimanov metrosunun yaxınlığı)",False,40.40373884,49.87158988,False,2025-06-04T20:13:09.270Z,2025-11-19T12:56:24.735Z,2025-11-19T12:56:25.458Z,az
9944,m6ycqqyo6cawqsmdccnmr6zf,Aloe Bravo Bakıxanov,PHARMACY,+994552043355,,9:00-22:00/7,"Bakı şəh., Sabunçu ray., R.Qəmbərov küç., məh. 2566",False,40.41243111,49.95523007,False,2025-06-04T20:13:08.110Z,2025-11-19T12:56:25.858Z,2025-11-19T12:56:26.769Z,az
10034,vv69osvydgdvlwafkrkp02x8,Dokta 639 Şamaxı,PHARMACY,+994554050166,,9:00-21:00/7,"Şamaxı şəh., N.Nərimanov küç., 68",False,40.63970044,48.63895413,False,2025-06-04T20:13:04.062Z,2025-11-19T12:56:29.413Z,2025-11-19T12:56:29.840Z,az
10068,utdlb55f2faj9jy1hvzxeu33,Kanon Xəmsə Mingəçevir,PHARMACY,+994554558547;+994242758871,,8:00-24:00/7,"Mingəçevir şəh., H.Əliyev pr., 51Q",False,40.76811785,47.05611909,False,2025-06-04T20:13:04.028Z,2025-11-19T12:56:30.352Z,2025-11-19T12:56:30.625Z,az
10115,yjr5m81nxydbnsdtti6bulng,Dokta 540 Zaqatala,PHARMACY,+994552261495,,,"Zaqatala şəh., Vidadi küç., 15",False,41.63318308,46.64317001,False,2025-06-04T20:13:09.363Z,2025-11-19T12:56:30.982Z,2025-11-19T12:56:31.804Z,az
9902,f6ewx7oi8xxvm9a9hc4aupjr,Aloe Araz Xalqlar,PHARMACY,+994992044403,,9:00-22:00/7,"Bakı şəh., Nizami ray., B.Nuriyev küç., 32",False,40.40113233,49.95633588,False,2025-06-04T20:13:07.561Z,2025-11-19T12:56:24.447Z,2025-11-19T12:56:25.154Z,az
9946,r6h7te370a35m7r9ww4gd5so,SUNTERRA,PHARMACY,+994554558717;+994123760691,,8:00-23:00/7,"Bakı şəh., Xətai ray., Sarayevo küç., ev 18",False,40.38628416,49.9588971,False,2025-06-04T20:13:03.914Z,2025-11-19T12:56:26.531Z,2025-11-19T12:56:26.859Z,az
9975,iio6qsdfgraj6a04bas4mvq0,Medical City,PHARMACY,+994705942505;+994125942505,,9:00-21:00/7,"Bakı şəh., Nəsimi ray., Füzuli küç.,49",False,40.3772141,49.8367291,False,2025-06-04T20:13:03.900Z,2025-11-19T12:56:27.387Z,2025-11-19T12:56:27.589Z,az
10012,pzx952y5cqpzyz6spyj5hd03,Vita Sabunçu 14,PHARMACY,+994552247997;+994124507428,,,"Bakı şəh., Sabunçu ray., Ə.Məmədəliyev küç. 7",False,40.44485192,49.94401368,False,2025-06-25T08:29:40.066Z,2025-11-19T12:56:28.169Z,2025-11-19T12:56:29.080Z,az
10041,op70t6drje1uzsh5r0y633v6,Zeytun metro Gənclik 1,PHARMACY,+994502731195,,8:00-23:00/7,"Bakı şəh., Nərimanov ray., F.X. Xoyski pr. (metronun içi- Gənclik-mall çıxışı)",False,40.400853,49.85253,False,2025-06-04T20:13:04.020Z,2025-11-19T12:56:29.656Z,2025-11-19T12:56:30.089Z,az
10067,k4j2xyoptjujiomm3wi4a3d2,Aloe Bakıxanov,PHARMACY,+994992044407,+994992044407,9:00-22:00/7,"Bakı şəh., Bakıxanov qəs., M.Fətəliyev küç., 35",False,40.41251016,49.95616337,False,2025-06-04T20:13:08.960Z,2025-11-19T12:56:30.324Z,2025-11-19T12:56:30.552Z,az
10144,p74g62uqtm4eom6v4625huzb,Kanon Mərkəz Gəncə,PHARMACY,+994554558104;+994222564277,,8:00-24:00/7,"Gəncə şəh., Ə.Məmmədov küç., 47",False,40.66606615,46.35292341,False,2025-06-04T20:13:06.822Z,2025-11-19T12:56:32.149Z,2025-11-19T12:56:32.461Z,az
9878,g0zfm75b76tpuiyg7nmxkg9e,Vita Pirşagı 104,PHARMACY,+994125515419;+994552548419,,,"Sabunçu ray., Pirşagı qəs., Əjdər Məlikov 34 (Anar marketlə üzbəüz Məscidin yanında)",False,40.55770766,49.88807668,False,2025-06-04T20:13:04.669Z,2025-11-19T12:56:23.346Z,2025-11-19T12:56:23.865Z,az
9936,zoi4yewqhv2ilvqa4kc8nmqn,Zeytun metro 28 May,PHARMACY,+994502735410,,8:00-23:00/7,"Bakı şəh., Nəsimi ray., Puşkin küç.",False,40.37971543,49.84893561,False,2025-06-04T20:13:03.966Z,2025-11-19T12:56:26.189Z,2025-11-19T12:56:26.624Z,az
10009,e6e6i81pavvrcfdkmvs90yj5,Aloe KFC,PHARMACY,+994992044413,+994992044413,9:00-22:00/7,"Bakı şəh., Yasamal ray., М. Şərifzadə küç.,125 A",False,40.38912263,49.80289939,False,2025-06-04T20:13:08.545Z,2025-11-19T12:56:28.582Z,2025-11-19T12:56:28.946Z,az
10149,n5nzdd8o69wxiojrbavpalet,Kanon Lənkəran,PHARMACY,+994554558569;+994252551995,,8:00-22:00/7,"Lənkəran şəh., H.Aslanov küç., (Xiyabanın yanı)",False,38.75478404,48.85219382,False,2025-06-04T20:13:04.044Z,2025-11-19T12:56:32.358Z,2025-11-19T12:56:32.614Z,az
9901,rhhlshgxj4bh2ib17xtdqzlz,Aloe Buzovna,PHARMACY,+994992044412,+994992044412,9:00-22:00/7,"Bakı şəh., Buzovna qəs., R. İmanov küç., 24",False,40.52760395,50.09816446,False,2025-06-04T20:13:08.930Z,2025-11-19T12:56:24.446Z,2025-11-19T12:56:25.151Z,az
10007,uqrsfbuh573iubl2t8k6ivgw,Aloe Gənclik Mall,PHARMACY,+994552043399,,9:00-22:00/7,"Bakı şəh., Nərimanov ray., F.X. Xoyski pr.,14",False,40.39995706,49.85303703,False,2025-06-04T20:13:07.342Z,2025-11-19T12:56:28.428Z,2025-11-19T12:56:28.818Z,az
10030,ndzkw9nnd2tkwcmbewm9ng7s,100 Aptek,PHARMACY,+994555054867,,8:00-23:00/7,"Bakı şəh ,Nizami ray., Q.Qarayev pr., 74H",False,40.40953047,49.94333401,False,2025-06-04T20:13:08.482Z,2025-11-19T12:56:29.146Z,2025-11-19T12:56:29.449Z,az
10108,ns518iwbzvxswud1bzibum9q,Zeytun 313 Primorsk,PHARMACY,+994773761010,,,"Bakı şəh., Qaradağ ray.,Sahil qəs., E.Quliyev küç., 50",False,40.22507658,49.58006988,False,2025-06-04T20:13:08.476Z,2025-11-19T12:56:31.300Z,2025-11-19T12:56:31.639Z,az
10136,ikzvll9l4z49etacj807phsh,BUTA Xətai   ,PHARMACY,+994124892602;+994552140035,,9:00-23:00/7,"Bakı şəh., Xətai ray., Xocalı pr., 29",False,40.38299002,49.87009688,False,2025-06-04T20:13:03.820Z,2025-11-19T12:56:31.876Z,2025-11-19T12:56:32.227Z,az
10153,d658runjs3edljekq54o6vk3,Kanon Qöncə 160 Gəncə,PHARMACY,+994554558549;+994222551039;+994125102378,,8:00-22:00/7,"Gəncə şəh., Kəpəz ray., Ş.İ.Xətai pr. ilə Atatürk pr. kəsişməsi",False,40.6976943,46.36121124,False,2025-06-04T20:13:03.971Z,2025-11-19T12:56:32.460Z,2025-11-19T12:56:32.749Z,az
9933,ew4ihemxdha4p6jj4f9ecqax,Zəfəran Mərdakən,PHARMACY,+994554559078;+994124548289,,8:00-22:00/7,"Bakı şəh., Xəzər ray., Mərdəkan qəs., S.Yesenin küç., 614",False,40.4869905,50.16462307,False,2025-06-04T20:13:03.944Z,2025-11-19T12:56:26.148Z,2025-11-19T12:56:26.573Z,az
10050,lc3og01o729oip0damekx1lv,Səma Aptek,PHARMACY,+994554558546;+994125626116,,24/7,"Bakı şəh., Binəqədi ray., 8-ci mkr., Ş.Məmmədova küç., ev 6E",True,40.42160361,49.84642317,False,2025-06-04T20:13:06.797Z,2025-11-19T12:56:29.820Z,2025-11-19T12:56:30.242Z,az
10152,ys5h869z4ajgpuxjiab3cvk6,Dokta 842 Mingəçevir,PHARMACY,+994555078597,,,"Mingəçevir şəh., A.Məmmədov küç., 4A",False,40.7544244,47.06441331,False,2025-06-04T20:13:04.666Z,2025-11-19T12:56:32.433Z,2025-11-19T12:56:32.711Z,az
9969,xfh47nubl1mawke6hzln7fyg,Zəfəran Şirvan,PHARMACY,+994554558747;+994212153468,,9:00-21:00/7,"Şirvan şəh., N.Nərimanov pr., 2A",False,39.9520136,48.9391757,False,2025-06-04T20:13:04.063Z,2025-11-19T12:56:27.151Z,2025-11-19T12:56:27.449Z,az
10042,ek3di9p1qit0n3f3wnap3lu4,Lutemax,PHARMACY,+994554558538;+994124323993,,9:00-23:00/7,"Bakı şəh., Yasamal ray., Şərifzadə küç., 100",False,40.38390982,49.80393363,False,2025-06-04T20:13:03.840Z,2025-11-19T12:56:29.846Z,2025-11-19T12:56:30.128Z,az
10069,i710lu51zblbmtc9vwfu9xar,Aptek Buta-50 Lökbatan,PHARMACY,+994552041252;+994124455587,,,"Bakı şəh., Qaradağ ray., Lökbatan qəs., İntiqam Nəbiyev küç., 33",False,40.32473729,49.74111363,False,2025-06-04T20:13:09.101Z,2025-11-19T12:56:30.405Z,2025-11-19T12:56:30.709Z,az
10146,znsus21p9lccpfxxn79vhmcd,Darçın Lider TV,PHARMACY,+994992078809;+994125551053,,24/7,"Bakı şəh., Yasamal ray., A.Abbasov küç., 22",True,40.38602347,49.81525802,False,2025-06-04T20:13:07.443Z,2025-11-19T12:56:32.188Z,2025-11-19T12:56:32.516Z,az
9918,uopu62nc2dlf6z82959ar7sg,Kanon Qazax-1,PHARMACY,+994554558168;+994222955631,,8:00-22:00/7,"Qazax şəh., H.Əliyev pr., 114 A",False,41.09269255,45.36619124,False,2025-06-04T20:13:04.072Z,2025-11-19T12:56:24.561Z,2025-11-19T12:56:25.854Z,az
10078,n53ue91875re2nfqaakapr3q,Zəfaran 535 Şəki,PHARMACY,+994554558963,,10:00-22:00/7,"Şəki şəh., M.Rəzulzadə pr.,711",False,41.19718646,47.17536542,False,2025-06-04T20:13:04.039Z,2025-11-19T12:56:30.573Z,2025-11-19T12:56:30.885Z,az
10143,z5m17q33y8xi9gg73i87lhpc,Vita Binə 60,PHARMACY,+994125561739 / +994552171127,,,"Bakı şah., Xəzər ray., Binə qəs., Ə.İsazadə küç.
(BazarStore-un yanı)",False,40.45050458,50.08781063,False,2025-06-25T08:25:20.033Z,2025-11-19T12:56:32.175Z,2025-11-19T12:56:32.445Z,az
9959,vvsoi2w6pyvqcbbbv3omm6rc,Darçın M.Müşfiq,PHARMACY,+994992078802;+994125370558,,24/7,"Bakı şəh., Yasamal ray., M.Müşfiq küç., 10",True,40.36524077,49.81985767,False,2025-06-04T20:13:04.156Z,2025-11-19T12:56:26.807Z,2025-11-19T12:56:27.190Z,az
10040,c9vl920qieedj99s8kufaykx,5+ Aptek,PHARMACY,+994555152729,,8:00-23:00/7,"Bakı şəh., Yasamal ray., Ş.Qurbanov küç., 2/5",False,40.37641158,49.83233578,False,2025-06-04T20:13:04.399Z,2025-11-19T12:56:29.741Z,2025-11-19T12:56:30.099Z,az
10097,bcmkeb8b7imuw8d9t13bm9mb,Pharma Store Olimp,PHARMACY,+994502517888,+994502517888,9:00-21:00/7,"Bakı şəh., Yasamal ray.,Ə.Ələkbərov küç.,5",False,40.37981471,49.81913775,False,2025-06-04T20:13:08.291Z,2025-11-19T12:56:30.880Z,2025-11-19T12:56:31.287Z,az
9916,pm1rxmub76uc3zrkgy0r938c,Darçın Neftçilər xəstəxanası,PHARMACY,+994992078860;+994124804644,,24/7,"Bakı şəh., Nizami ray., H.Salmani küç., 1/1",True,40.380924,49.862648,False,2025-06-04T20:13:08.062Z,2025-11-19T12:56:24.546Z,2025-11-19T12:56:25.820Z,az
9990,uihrqbyy7pr6ihm5pie9u8ft,Dokta-804 Sumqayıt,PHARMACY,+99455 9914797;+994186568589,,9:00-23:00/7,"Sumqayıt şəh., 17-ci mkr, M. Əsədov küç.",False,40.56029551,49.69840037,False,2025-06-04T20:13:03.979Z,2025-11-19T12:56:27.708Z,2025-11-19T12:56:28.009Z,az
10066,jqsi70j1mfjg38khslrb2l00,Buta-22 Şamaxinka,PHARMACY,+994124316293;+994552093469,,,"Bakı şəh. Nəsimi r-nu, Moskva pr., 58A",False,40.40624813,49.80699462,False,2025-06-04T20:13:09.333Z,2025-11-19T12:56:30.236Z,2025-11-19T12:56:30.552Z,az
10155,ojqedsadltc92ijcynszk49q,Vita Yasamal,PHARMACY,+994125330476,,,"Bakı şəh., Yasamal ray., Ş. Mehdiyev küç., ev 97",False,40.39265623,49.81500853,False,2025-06-04T20:13:06.140Z,2025-11-19T12:56:32.591Z,2025-11-19T12:56:32.884Z,az
9885,hjzjfds4ela591k8chxm856z,İMMUN  Goranboy,PHARMACY,+994702452112;+994222452112,,,"Goranboy şəh,H.Əliyev pr., 50",False,40.60429312,46.78415902,False,2025-06-04T20:13:08.535Z,2025-11-19T12:56:23.380Z,2025-11-19T12:56:23.994Z,az
10011,i6bp0pcvc71zz4sysggok94s,Aloe Azza Street Retail,PHARMACY,+994552047766,,9:00-22:00/7,"Bakı şəh., Nəsimi ray., R.Behbudov küç., 52",False,40.37628619,49.84574418,False,2025-06-04T20:13:07.452Z,2025-11-19T12:56:28.596Z,2025-11-19T12:56:29.045Z,az
10053,wyztl94n22j7fvggfrpnjj8e,Pharma Store Koala Park,PHARMACY,+994512501939,,8:00-23:00/7,"Bakı şəh., Nəsimi ray., Azadlıq pr., 153B",False,40.39108963,49.84174296,False,2025-06-04T20:13:06.830Z,2025-11-19T12:56:29.357Z,2025-11-19T12:56:30.329Z,az
10092,v91q826z1ijni4pe9cqkfc77,Zeytun metro N. Nərimanov 1,PHARMACY,+994502731197,,8:00-23:00/7,"Bakı şəh., Nərimanov ray., Təbriz küç.(metronun içi- Metropark çıxışı)",False,40.40323658,49.87128845,False,2025-06-04T20:13:03.940Z,2025-11-19T12:56:30.818Z,2025-11-19T12:56:31.101Z,az
10137,x6rb3vgejzc94ttbn2gyu3z3,Buta-62 Nardaran yolu,PHARMACY,+994124554072 / +994552262781,,,Bakı şəh. Sabunçu ray. Maştağa qəs. Seyid İbadağa küç. Ev 1A,False,40.53360324,50.00193894,False,2025-07-21T13:41:08.061Z,2025-11-19T12:56:31.948Z,2025-11-19T12:56:32.239Z,az
9886,c43qkqt5trhduekdw667b0v6,Buta Gəncə 7450,PHARMACY,+994556797365,,,Gəncə şəh. Nizami ray. Ə.Mehmandarov küç. (Araz marketin yanı),False,40.67511304,46.33432752,False,2025-07-21T13:38:50.065Z,2025-11-19T12:56:23.542Z,2025-11-19T12:56:24.029Z,az
9925,skvzykqodecko03zql8t92w7,Dokta 859 Zaqatala,PHARMACY,+994503362704,,,"Zaqatala şəh., Zərifə Əliyeva parkı",False,41.62905741,46.64287606,False,2025-06-04T20:13:09.412Z,2025-11-19T12:56:25.613Z,2025-11-19T12:56:26.174Z,az
9955,m9nec3bu64e6nh7bx05hzi36,Günəbaxan,PHARMACY,+994554555638;+994125102378,,8:00-23:00/7,"Bakı şəh., Yasamal ray., B.Vahabzadə küç., 5",False,40.3753653,49.81219317,False,2025-06-04T20:13:03.787Z,2025-11-19T12:56:26.612Z,2025-11-19T12:56:27.105Z,az
10035,cpmyty4n8vorb8fkwe1oa1bj,Zeytun metro Gənclik 2,PHARMACY,+994502731194,,8:00-23:00/7,"Bakı şəh., Nərimanov ray., F.X. Xoyski pr. (metronun içi- McDonald's çıxışı)",False,40.40014,49.850528,False,2025-06-04T20:13:03.992Z,2025-11-19T12:56:29.622Z,2025-11-19T12:56:29.974Z,az
10070,tkavk4qzo2kxojp2ue2iyina,Zeytun metro Qara Qarayev 1,PHARMACY,+994502731190,,8:00-23:00/7,"Bakı şəh., Nizami ray., Q.Qarayev pr. (metronun içi-Panda Kids çıxışı)",False,40.41763273,49.93309161,False,2025-06-04T20:13:08.270Z,2025-11-19T12:56:30.429Z,2025-11-19T12:56:30.737Z,az
10093,pnirhh67e5xx3gig6o0atqy3,Zəfəran Primorsk-1,PHARMACY,+994554559093;+994124469799,,9:00-21:00/7,"Bakı şəh., Qaradağ ray., Sahil qəs., M.Seyidov küç., 24",False,40.22947879,49.5819599,False,2025-06-04T20:13:03.873Z,2025-11-19T12:56:30.981Z,2025-11-19T12:56:31.253Z,az
10127,bo5gqkf71gfs3ae5dvd3nve8,Kanon Zəfər Bərdə,PHARMACY,+994559007525,,8:00-24:00/7,"Bərdə şəh., Ü.Hacıbəyov küç.,12",False,40.37448313,47.12270731,False,2025-06-04T20:13:04.049Z,2025-11-19T12:56:31.554Z,2025-11-19T12:56:32.055Z,az
9887,jxf4bdmlhjcxm3gahoe3dhyl,ROWALUX,PHARMACY,+994559510993,,8:30-23:00/7,"Bakı şəh., Xətai ray., M.Hadi küç., 65K",False,40.37404954,49.95400986,False,2025-06-04T20:13:06.834Z,2025-11-19T12:56:23.537Z,2025-11-19T12:56:24.055Z,az
10008,cy7qdmkgv1ugbh3jumagqa7a,Vita - Hövsan,PHARMACY,+99412457388 / +994552205256,,,"Bakı şəh., Suraxanı ray., Hövsan qəs., Hafiz Quliyev küç., 24 (Hövsan Mall yaxınlığında)",False,40.36024176,50.07776497,False,2025-06-25T08:21:12.121Z,2025-11-19T12:56:28.521Z,2025-11-19T12:56:28.878Z,az
10148,lukt7etocilyu4k39tc8lhar,Darçın BSM,PHARMACY,+994992078817;+994124413791,,24/7,"Bakı şəh., Nəsimi ray., N.Yusifbeyli küç., 90 a",True,40.39805333,49.83927907,False,2025-06-04T20:13:08.083Z,2025-11-19T12:56:32.176Z,2025-11-19T12:56:32.582Z,az
9888,y0xi2y7wzjok1z8say3c86pc,Buta 415 Sarayevo,PHARMACY,+994552065869,,24/7,"Bakı şəh., Xətai ray., Sarayevo küç., 36",True,40.38660182,49.96280818,False,2025-06-04T20:13:08.925Z,2025-11-19T12:56:23.589Z,2025-11-19T12:56:24.094Z,az
9909,yvudhb897u7rfzyk1i6ukyp1,Aloe Əhmədli 2 (Sarayevo),PHARMACY,+994992044404,,9:00-22:00/7,"Bakı şəh., Xətai ray., Sarayevo küç., 18C",False,40.38628422,49.95883229,False,2025-06-04T20:13:08.403Z,2025-11-19T12:56:24.754Z,2025-11-19T12:56:25.484Z,az
9979,y0552faza6a85xghv7ekeye5,Zeytun metro Neftçilər 1,PHARMACY,+994502731193,,8:00-23:00/7,"Bakı şəh., Nizami ray., Q.Qarayev pr. (metronun içi- McDonald's çıxışı)",False,40.41038209,49.94348399,False,2025-06-04T20:13:06.823Z,2025-11-19T12:56:27.235Z,2025-11-19T12:56:27.632Z,az
10101,v200wofo02p26dudz1trm9d5,Zəfəran Cəlilabad,PHARMACY,+994252453838;+994554558164,,8:00-24:00/7,"Cəlilabad şəh., Bakı-Astara şosesi",False,39.22500767,48.51994053,False,2025-06-04T20:13:07.920Z,2025-11-19T12:56:31.151Z,2025-11-19T12:56:31.401Z,az
9919,osd0a6aubttkkng1fau76kgq,Aloe Badamdar,PHARMACY,+994992044484,,,"Səbail ray., Badamdar qəsəbəsi,1-ci yaşayış massivi,Badamdar şossesi 5 (Caspian İnternational Hospital yaxınlığı)",False,40.34277285,49.81014995,False,2025-06-04T20:13:09.297Z,2025-11-19T12:56:25.437Z,2025-11-19T12:56:25.901Z,az
9962,u148uvzog9zzyj331xba04lu,Zəfəran 20 Yanvar,PHARMACY,+994554556951;+994124318700,,9:00-23:00/7,"Bakı şəh., Yasamal ray., Zərdabi pr. ilə M.Həsənov küç. kəsişməsi, məh. 3165 (Azərsu ilə üzbəüz)",False,40.40408904,49.80633186,False,2025-06-04T20:13:03.860Z,2025-11-19T12:56:26.744Z,2025-11-19T12:56:27.152Z,az
10122,s8s21i3osomobz8002xrn0sa,Buta Bayıl 2,PHARMACY,+994552080086;+994124911367,,9:00-23:00/7,"Bakı şəh., Səbail ray., Ə.Yaqubov küç., 6",False,40.34087697,49.83679582,False,2025-06-04T20:13:03.922Z,2025-11-19T12:56:31.673Z,2025-11-19T12:56:31.898Z,az
8601,b5vp3oexaq744p4s54wyvvej,Universal Pharma,PHARMACY,+994773333030,,,"Bakı şəhəri, Yasamal rayonu, İsmayılbəy Qutqaşınlı küçəsi, 50",False,40.37,49.82,False,2025-08-05T05:50:10.007Z,2025-08-05T05:51:28.504Z,2025-08-05T05:51:28.537Z,az
9995,w5qg941vmjvwj9oom0ixcg1t,Vita Əcəmi 1,PHARMACY,+994555054847,+994555054847,,"Bakı şəh., M.Cəfərov küç., ev 16",False,40.40913084,49.81310857,False,2025-06-04T20:13:04.241Z,2025-11-19T12:56:27.894Z,2025-11-19T12:56:28.411Z,az
10037,gowwipjh3uzkggcwg11jskmf,Aloe Bravo Şəmkir,PHARMACY,+994552137744,,9:00-22:00/7,"Şəmkir şəh., Bakı-Qazax şossesinin sağ kənarı, 1 (Bravo marketin içində)",False,40.85358573,46.03088054,False,2025-06-04T20:13:07.615Z,2025-11-19T12:56:29.674Z,2025-11-19T12:56:30.034Z,az
9950,i0458ujgf3p6v2aqgp87v83p,Kaspian 24/7,PHARMACY,+994513330407;+994708777999;+994124980407,,24/7,"Bakı şəh., Səbail ray., Bülbül pr., 16",True,40.37185042,49.84493362,False,2025-06-04T20:13:03.893Z,2025-11-19T12:56:25.960Z,2025-11-19T12:56:26.891Z,az
9970,dzzuxko93w529kc1xkimib46,Zəfəran BALZAM,PHARMACY,+994554558126;+994123424719,,9:00-22:00/7,"Xırdalan şəh., M.Ə.Rəsulzadə küç., B1",False,40.45337382,49.75049663,False,2025-06-04T20:13:04.003Z,2025-11-19T12:56:27.155Z,2025-11-19T12:56:27.453Z,az
10140,j3uls1lvlp3re0rk2t757axb,Dokta 597 Bərdə,PHARMACY,+994515909773;+994202055986,,,"Bərdə şəh., Ü.Hacıbəyov küç., 12",False,40.37562419,47.11633877,False,2025-06-04T20:13:04.245Z,2025-11-19T12:56:32.060Z,2025-11-19T12:56:32.356Z,az
10113,qex2wpmvvjxr8dh6in949nqv,General,PHARMACY,+994554558107;+994123717740,,9:00-23:00/7,"Bakı şəh., Xətai ray., X.Məmmədov küç., 32A",False,40.37084383,49.95572082,False,2025-06-04T20:13:07.426Z,2025-11-19T12:56:31.411Z,2025-11-19T12:56:31.784Z,az
9923,ub3jrwv0fn7gbqsjuf1vo690,British Pharmacy,PHARMACY,+994125304691;+994502551238,,8:00-22:00/7,"Bakı şəh., Yasamal ray., Tbilisi pr.,147 A",False,40.40019978,49.810344,False,2025-06-04T20:13:03.820Z,2025-11-19T12:56:25.496Z,2025-11-19T12:56:25.965Z,az
9928,dyhzdzpwmy62tf922y8dkofp,Dokta 875 Fizuli,PHARMACY,+994505799106;+994263150037,,,"Füzuli şəh., BalaBəhmənli kəndi (yolun üstündə)",False,39.55703057,47.56206513,False,2025-06-04T20:13:09.346Z,2025-11-19T12:56:25.990Z,2025-11-19T12:56:26.468Z,az
9972,dvpbm6q35deoi0ezz6y9diws,Aloe Qala,PHARMACY,+994992044402,+994992044402,9:00-22:00/7,"Bakı şəh., Xəzər ray., Qala qəs., Qala küç., 15",False,40.47500282,50.10980346,False,2025-06-04T20:13:08.506Z,2025-11-19T12:56:26.965Z,2025-11-19T12:56:27.512Z,az
10107,haf16v3l5daibido0joz9afw,Zeytun 500 Nizami,PHARMACY,+994502515149,,12/7,"Bakı şəh., Nizami ray., H. Əliyev pr., 119",False,40.4220677,49.91641047,False,2025-06-04T20:13:08.403Z,2025-11-19T12:56:30.813Z,2025-11-19T12:56:31.500Z,az
9236,huh88ph6cwbpv6brjx02f28a,Sarğı Aptek,PHARMACY,+994993155588,,,"Bakı ş., Nəsimi r., Mustafa Topçubaşov 24A",False,40.39593,49.83515,False,2025-09-04T11:22:39.126Z,2025-09-16T05:54:22.759Z,2025-09-16T05:54:22.789Z,az
10020,ci42c26eqqs3fer157uwneo3,Kanon Almaz Xaçmaz,PHARMACY,+994554558596;+994233254289,,9:00-21:00/7,"Xaçmaz şəh., N.Nərimanov pr., 47",False,41.46120061,48.79897792,False,2025-06-04T20:13:04.158Z,2025-11-19T12:56:29.032Z,2025-11-19T12:56:29.285Z,az
9893,f8dymjkeyp3vsf1hgb07g5xm,Pharma Store MUM,PHARMACY,+994502517889,,8:00-23:00/7,"Bakı şəh., Səbail ray., Azərbaycan pr., 30",False,40.37321583,49.83301798,False,2025-06-04T20:13:07.830Z,2025-11-19T12:56:23.706Z,2025-11-19T12:56:24.246Z,az
9938,bk5renxmcw7turudzexspdw3,Darçın Binəqədi,PHARMACY,+994992078805;+994124115191,,8:00-01:00/7,"Bakı şəh., Binəqədi ray., C.Ramazonov küç., ev 2B",False,40.46766468,49.82819231,False,2025-06-04T20:13:07.431Z,2025-11-19T12:56:26.413Z,2025-11-19T12:56:26.662Z,az
9964,o4mkehdahjr1dr442tih0l5h,Aloe 28 Mall,PHARMACY,+994552043311,,9:00-22:00/7,"Bakı şəh., Nəsimi ray., Azadlıq pr., 15a/4",False,40.37904703,49.84733825,False,2025-06-04T20:13:07.560Z,2025-11-19T12:56:26.997Z,2025-11-19T12:56:27.259Z,az
9993,mau9hhdhvzc8dauxysa3tmj1,Darçın Yasamal,PHARMACY,+994992078804;+994124338624,,24/7,"Bakı şəh., Yasamal ray., Şərifzadə 273",True,40.38871796,49.80261187,False,2025-06-04T20:13:07.441Z,2025-11-19T12:56:27.660Z,2025-11-19T12:56:28.026Z,az
10083,a1b4fazabfcxj0r6ptrpw166,Kanon Bəyaz Gəncə,PHARMACY,+994554558127;+994222651761,,9:00-18:00/7,"Gəncə şəh., Kəpəz ray., Ş.İ.Xətai pr. ilə V.Xulufu küç. kəsişməsi",False,40.69187284,46.38095432,False,2025-06-04T20:13:03.948Z,2025-11-19T12:56:30.723Z,2025-11-19T12:56:30.994Z,az
10018,zhfquo6el3srveynfob5yfnh,Qusar Dokta 1022,PHARMACY,+994552956646;+994233855929,,,"Qusar şəh., Şərifov küç., 6",False,41.43070042,48.44116804,False,2025-06-04T20:13:08.948Z,2025-11-19T12:56:29.001Z,2025-11-19T12:56:29.256Z,az
9913,uodis4qal6ppq35xdk1h56ye,Kanon Əhmədli,PHARMACY,+994554558578;+994123760361,,8:00-22:00/7,"Bakı şəh., Xətai ray., M.Hadi küç., 41",False,40.38402235,49.9545842,False,2025-06-04T20:13:03.822Z,2025-11-19T12:56:24.969Z,2025-11-19T12:56:25.632Z,az
9954,ravtu8b8hoiqobzl2z6jiinf,Vita Ramana 97,PHARMACY,+994124513766 / +994554574167,,,"Bakı, Sabunçu ray., Ramana qəs., Dadaş Bünyadzadə, Bina 40E",False,40.44228096,49.9748377,False,2025-06-25T08:27:45.118Z,2025-11-19T12:56:26.457Z,2025-11-19T12:56:27.106Z,az
10061,rx0t6ke8cfmcsioh7dgsnaob,Kanon Quba 2,PHARMACY,+994554558850;+994233353589,,9:00-23:00/7,"Quba şəh., H.Əliyev pr.",False,41.36192395,48.52421812,False,2025-06-04T20:13:04.133Z,2025-11-19T12:56:30.018Z,2025-11-19T12:56:30.402Z,az
10103,gnt5d3wt8bhcn5h6xzg4w2as,Kanon 100 Semaşko,PHARMACY,+994554558539;+994124494664,,9:00-21:00/7,"Bakı şəh., Nəsimi ray., M.Mirqasımov küç., 2",False,40.39433047,49.83492203,False,2025-06-04T20:13:03.828Z,2025-11-19T12:56:31.220Z,2025-11-19T12:56:31.509Z,az
10104,quuxo8cna0rcw3zi2ftxnj3d,BUTA 42 Fresko,PHARMACY,+994124981592;+994552515495,,9:00-22:00/7,"Bakı şəh., Nəsimi ray., Nizami küç., 129",False,40.37723732,49.85246135,False,2025-06-04T20:13:03.799Z,2025-11-19T12:56:31.214Z,2025-11-19T12:56:31.522Z,az
10079,cvwqo4apt6ymdwrnhamimgzw,Dədəmin,PHARMACY,+994503972424,+994552797365,10:00-22:00/6,"Gəncə şəh., M.Abbas Abbaszadə küç., (Kukla Teatrın yaxınlığında)",False,40.66923861,46.36397042,False,2025-06-04T20:13:04.197Z,2025-11-19T12:56:30.666Z,2025-11-19T12:56:30.938Z,az
9895,amr3swrvb569deep8794bkg4,Buta 405 Quba,PHARMACY,+994503358981,,,"Quba şəh., H.Əliyev pr., 228A",False,41.36186405,48.52509945,False,2025-06-04T20:13:08.970Z,2025-11-19T12:56:23.580Z,2025-11-19T12:56:24.083Z,az
9963,magtgawwnwyi8e688t2zk3k0,Buta 384,PHARMACY,+994553008197,,,"Şəki şəh., Məmmədəmin Rəsulzadə pros., 864",False,41.19768401,47.17606916,False,2025-06-04T20:13:09.681Z,2025-11-19T12:56:26.853Z,2025-11-19T12:56:27.253Z,az
10106,t4n4qjcvkvz1e4p6sm1o2jtj,Zəfəran Primorsk-2,PHARMACY,+994554558167;+994124466433,,9:00-21:00/7,"Bakı şəh., Qaradağ ray., Sahil qəs., Z.Qasımov pr., 24",False,40.22486278,49.57697337,False,2025-06-04T20:13:03.911Z,2025-11-19T12:56:31.361Z,2025-11-19T12:56:31.571Z,az
10036,bkgvavwia6lcfna2hr4lq1ev,Buta116 Metropark,PHARMACY,+994558055550;+994552508640,,24/7,"Bakı şəh., Nərimanov ray., Təbriz küç., 99",True,40.40407355,49.87301192,False,2025-06-04T20:13:08.494Z,2025-11-19T12:56:29.747Z,2025-11-19T12:56:30.016Z,az
9915,jejage4jf3b70irl3yx9dewh,Zeytun Qəbələ 10,PHARMACY,+994709663659;+994707348899,,8:00-24:00/7,"Qəbələ şəh., H.Əliyev pr., İ.B.Qutkaşınlı küç., 62A",False,40.98184872,47.84937004,False,2025-06-04T20:13:04.076Z,2025-11-19T12:56:25.285Z,2025-11-19T12:56:25.859Z,az
9978,uiz89eh0t4w13fzk85suyoqd,Darçın Asan Xidmət 3,PHARMACY,+994992078810;+994124342559,,24/7,"Bakı şəh., Yasamal ray., N.Hikmət küç., 24",True,40.37932651,49.804757,False,2025-06-04T20:13:07.385Z,2025-11-19T12:56:27.167Z,2025-11-19T12:56:27.596Z,az
10000,wi7hjlxd6c22p9z7xvip1yb4,Medical,PHARMACY,+994554555820;+994124648549,,9:00-22:00/7,"Bakı şəh., Nərimanov ray., Ə.Rəcəbli küç., 1/11",False,40.40919841,49.86263062,False,2025-06-04T20:13:04.156Z,2025-11-19T12:56:28.064Z,2025-11-19T12:56:28.626Z,az
10065,tod87q1vhy7zhzkklwcpddt9,NUR,PHARMACY,+994554559157;+994124902690,,,"Bakı şəh., Xətai ray., Xocalı pr., 34A",False,40.38208697,49.86921112,False,2025-06-04T20:13:03.894Z,2025-11-19T12:56:30.291Z,2025-11-19T12:56:30.533Z,az
10085,eqrcmv45cwmatn8kiorw2ekp,Zəfəran Sumqayıt,PHARMACY,+994554558900;+994186440929,,8:00-21:00/7,"Sumqayıt şəh., H.Əliyev pr., məh. 40",False,40.58379819,49.67317409,False,2025-06-04T20:13:04.036Z,2025-11-19T12:56:30.839Z,2025-11-19T12:56:31.048Z,az
9898,x9os1ltpe0dikbtqo2vtyn6x,Buta 7458,PHARMACY,+994557100533,,,"Gədəbəy ray., H.Əliyev pr., 1A",False,40.57395909,45.8072784,False,2025-06-04T20:13:09.184Z,2025-11-19T12:56:23.762Z,2025-11-19T12:56:24.384Z,az
10017,t6fkwrerwxqqw6in2l6xnu05,Dokta 1020 Xaçmaz,PHARMACY,+994233257823,,,"Xaçmaz şəh., N. Nərimanov küç., 58G",False,41.46198715,48.79938065,False,2025-06-04T20:13:08.948Z,2025-11-19T12:56:29.035Z,2025-11-19T12:56:29.292Z,az
10027,blrsyhoo7i8icp6z1o1vgnoc,Darçın Xırdalan,PHARMACY,+994992078816,,8:00-23:00,"Abşeron ray., H.Əliyev pr., ev C",False,40.45676538,49.73509462,False,2025-06-04T20:13:04.164Z,2025-11-19T12:56:29.148Z,2025-11-19T12:56:29.411Z,az
10044,r3hne47b2u7nb42dzv6i5ddg,Zeytun metro N. Nərimanov 2,PHARMACY,+994502731196,,8:00-23:00/7,"Bakı şəh., Nərimanov ray., Təbriz küç.(Life-centre çıxışı)",False,40.40212419,49.86960026,False,2025-06-04T20:13:03.950Z,2025-11-19T12:56:29.862Z,2025-11-19T12:56:30.166Z,az
10075,k0h4l98r74f7iwlwnas9c0je,Dokta 50 Şəki,PHARMACY,+994556204131,,,"Şəki şəh., M.Ə.Rəsulzadə ilə H.Əliyev küçələrinin kəsişməsi",False,41.20373139,47.17906594,False,2025-06-04T20:13:08.886Z,2025-11-19T12:56:30.510Z,2025-11-19T12:56:30.791Z,az
9922,hqe45lu6kbxces3vsiwrnemo,NEFRON,PHARMACY,+994554555631;+994124921623,,9:00-22:00/7,"Bakı şəh., Səbail ray., Ə.Cavad küç., 21",False,40.36947575,49.833915,False,2025-06-04T20:13:03.870Z,2025-11-19T12:56:25.486Z,2025-11-19T12:56:25.956Z,az
9939,s8vjj6i1w2yfdgr0zb85ts0o,Pharma Store Səhiyyə Nazirliyi,PHARMACY,+994512074674,,8:00-21:00/7,"Bakı şəh., Nəsimi ray., Mərdanov qardaşları küç., 100A",False,40.39242171,49.83297618,False,2025-06-04T20:13:07.185Z,2025-11-19T12:56:26.425Z,2025-11-19T12:56:26.733Z,az
10117,baluqro1omojpzzg9sy6hm2a,Dokta 978 Biləsuvar,PHARMACY,+994103164916;+994252953255,,,"Biləsuvar şəh., H.Əliyev küç.",False,39.45896369,48.54236469,False,2025-06-04T20:13:08.965Z,2025-11-19T12:56:31.624Z,2025-11-19T12:56:31.843Z,az
10109,m1c1q4q6tyxfxis64d6vi7q4,Vita Zabrat 3,PHARMACY,+994125151763 / +994552555116,,,"Bakı şəh., Sabunçu ray., Zabrat qəs., Babək küç. 94A (Ayxan marketin yanı)",False,40.47526299,49.94974184,False,2025-06-25T08:32:06.832Z,2025-11-19T12:56:31.371Z,2025-11-19T12:56:31.635Z,az
10059,kvayd2sv5f58p9hn44cf89cd,Darçın M.Qaşqay,PHARMACY,+994992078803;+994124401431,,24/7,"Bakı şəh., Nəsimi ray., M.Qaşqay küç., 63A",True,40.39258922,49.84306425,False,2025-06-04T20:13:07.384Z,2025-11-19T12:56:30.078Z,2025-11-19T12:56:30.418Z,az
10150,pp159em5ykvemcunjb0ggpgf,Kanon Qazax-2,PHARMACY,+994554558169;+994222951498,,8:00-22:00/7,"Qazax şəh., H.Əliyev pr., 175",False,41.09268913,45.36619201,False,2025-06-04T20:13:04.087Z,2025-11-19T12:56:32.114Z,2025-11-19T12:56:32.602Z,az
9293,gnmznk6hda4p840npxk1w6x5,Aloe AFF Business Center,PHARMACY,0992044434,,,"Nəsimi r-nu, Nizami küç., 705-ci məhəllə, ev 129E",False,40.37659,49.8417,False,2025-10-17T06:45:51.142Z,2025-10-17T06:45:52.012Z,2025-10-17T06:45:52.038Z,az
8860,m15pneqa8s8pg9udqzre4iyu,Aloe + Onlayn Aptek,ONLINE_PHARMACY,+994102657777,+994102657777,,Mobil tətbiqi indi yüklə və 7/24 onlayn çatdırımadan faydalan!,True,,,True,2025-07-18T07:15:38.082Z,2025-07-18T07:44:03.523Z,2025-07-18T07:44:03.544Z,az
10074,urc8b6zxlffbbbee0729jttq,Onlayn Darçın,ONLINE_PHARMACY,+994992078817,+994992078817,09:00-21:00/6,"Həmin gün çatdırılması üçün: Sifariş vaxtı: 08:00-14:00 - həmin gün 14:00-21:00 kimi çatdırılacaq Növbəti gün çatdırılması üçün: Sifariş vaxtı: 14:00-21:00 - sonrakı gün 14:00-21:00 kimi çatdırılacaq
",False,,,False,2025-06-04T20:13:07.382Z,2025-11-19T12:56:30.528Z,2025-11-19T12:56:30.797Z,az
10114,ldf0ufcp12ogyuel54qmzclj,Onlayn Kaspian,ONLINE_PHARMACY,+994513330407;+994124980407,+994513330407,9:00-21:00/6,"Həmin gün çatdırılması üçün: Sifariş vaxtı: 09:00-14:00 - həmin gün 14:00-20:00 kimi çatdırılacaq
Növbəti gün çatdırılması üçün: Sifariş vaxtı: 14:00-21:00 - sonrakı gün 10:00-21:00 kimi çatdırılacaq",False,,,False,2025-06-04T20:13:03.762Z,2025-11-19T12:56:31.111Z,2025-11-19T12:56:31.841Z,az
10098,xv857ll7ev5kyjl13tka58jy,Onlayn Medical City,ONLINE_PHARMACY,+994705942505,+994705942505,09:00-21:00/7,"Həmin gün çatdırılması üçün: Sifariş vaxtı: 09:00-15:00 - həmin gün 14:00-23:00 kimi çatdırılacaq
Növbəti gün çatdırılması üçün: Sifariş vaxtı: 15:00-23:00 - sonrakı gün 09:00-18::00 kimi çatdırılacaq",False,40.409264,49.8670924,False,2025-06-04T20:13:03.796Z,2025-11-19T12:56:31.080Z,2025-11-19T12:56:31.353Z,az
8959,pyf0b8yfv126q40bdqxwrnt1,DÖVLƏT TİBBİ-SOSİAL EKSPERTİZA VƏ REABİLİTASİYA AGENTLİYİ,CLINIC,+994125684625,,,Bakı şəh. Mirmahmud Kazımovski küç. 37,False,40.42,49.82,True,2025-06-17T10:59:29.959Z,2025-07-31T05:41:17.584Z,2025-07-31T05:41:17.618Z,az
9295,aq4nbgode76lwk9ul1zrs6nc,Zəfər Tibb Mərkəzi,CLINIC,+994512906611;+994512906617,,b.e.-ş: 07:00 - 18:00 / bazar: 09:00 - 15:00,Akademik Şəfayət Mehdiyev küç. 129,False,40.38,49.82,True,2025-06-19T06:26:39.869Z,2025-11-12T14:51:51.517Z,2025-11-12T14:51:51.595Z,az
9186,i3598gmmquz8cxlmvlwvkzue,Olimp Hospital,CLINIC,*2100; +994995388899,+994995388899,,"8-10 İnşaatçılar prospekti, Bakı   ",True,40.37587,49.82037,True,2025-08-25T08:19:18.136Z,2025-08-25T08:42:05.481Z,2025-08-25T08:42:05.525Z,az
10055,t3iewk8setcbwsw3dwa7sk4b,MTN Hospital (DTX hospitalı),CLINIC,+994124057911;+994124057912;+994124057913;+994124057972;+994124057911,,,"Bakı şəh., Səbail ray., Badamdar qəs., Məktəbli küç., 1",False,40.3389919,49.803095,False,2025-06-04T20:13:08.000Z,2025-11-19T12:56:29.634Z,2025-11-19T12:56:30.347Z,az
10080,jjxqqy2qn08po7milcvcgd23,Medika Hospital,CLINIC,+994553698707;+994123798707,,,"Bakı şəh., Xətai ray., N.Tusi küç., 22",False,40.36889263,49.96264522,False,2025-06-04T20:13:07.675Z,2025-11-19T12:56:30.655Z,2025-11-19T12:56:30.952Z,az
10142,k3oj7waed4aami2tcem1sb3a,Yeni Gəncə Tibb Mərkəzi (Gəncə şəhəri),CLINIC,+994102308041;+994222540700,,,"Gəncə şəh., Yeni Gəncə qəs., 28 May küç., 23",False,40.6852427,46.3317113,False,2025-06-04T20:13:07.985Z,2025-11-19T12:56:32.119Z,2025-11-19T12:56:32.412Z,az
10156,ctbidntgck36uheb5s9vz92i,Modern Hospital,CLINIC,+994554910949,,,"Bakı şəh., Nizami ray., Babək pr., 85K",False,40.39550586,49.94819867,False,2025-06-04T20:13:06.202Z,2025-11-19T12:56:32.737Z,2025-11-19T12:56:33.082Z,az
9953,zzw8y7jkhrjgyf86pzuayc4v,MİTRİ (Milli İdman Tibb və Reabilitasiya İnstitutu),CLINIC,+994124048310;+994124048311;+994124048312;+994502634075;+994502634077,,,"Bakı şəh., Nərimanov ray., Olimpiya küç., 4A",False,40.3989291,49.8554662,False,2025-06-04T20:13:04.127Z,2025-11-19T12:56:26.628Z,2025-11-19T12:56:27.042Z,az
10019,dfupyif9q4rd7rjw9gebpwa0,EL LAB Klinikası,CLINIC,+994553105204;+994123105204,,,"Bakı şəh., Nərimanov ray., Aşıq Molla Cümə küç., 44",False,40.40800551,49.85996146,False,2025-06-04T20:13:09.075Z,2025-11-19T12:56:29.026Z,2025-11-19T12:56:29.271Z,az
10084,fcnutvriz8nn20cyb32yujcy,Mərkəzi Klinika ambulator (MKX),CLINIC,+994124921092(ext.8102);+994502891092,,,"Bakı şəh., Səbail ray., Z.Əliyeva küç., 5",False,40.36867297,49.83924039,False,2025-06-04T20:13:07.968Z,2025-11-19T12:56:30.688Z,2025-11-19T12:56:31.015Z,az
10160,eackf5uw4oltdaruyxr0axz1,Şirvan Şəhər Mərkəzi Xəstəxanası,CLINIC,(+994) 21 215-03-58 / (+994) 21 215-32-42,,,Şirvan şəh. Nəriman Nərimanov küçəsi.,True,39.95217,48.93691,False,2025-11-20T08:22:50.928Z,2025-11-20T08:22:52.151Z,2025-11-20T08:22:52.229Z,az
9907,x5aibeaol5z79b7808ec6avt,HB Güvən klinikası,CLINIC,+994706677725;+994124364841,,,"Bakı şəh., Binəqədi ray., Atatürk pr., 3078 ilə Ə.Naxçıvani küç. kəsişməsi",False,40.4165842,49.8445817,False,2025-06-04T20:13:06.117Z,2025-11-19T12:56:24.224Z,2025-11-19T12:56:25.442Z,az
9932,y5njlclnqt777gknqoxraoaj,Kəpəz Hospital,CLINIC,+994559900547;+994554556931,+994559900547,,"Bakı şəh., Nəsimi ray., C.Məmmədquluzdə küç., 101A",False,40.39799219,49.82649491,False,2025-06-04T20:13:09.014Z,2025-11-19T12:56:26.108Z,2025-11-19T12:56:26.543Z,az
10124,ksb18arzu6pf539zsv15u103,Mingeçevir Nərgiz Klinikası,CLINIC,+994503587447; +994702742909,,,"Mingəçevir şəh., M.Maqomayev pr., 81B",False,40.76696992,47.04492807,False,2025-06-04T20:13:09.121Z,2025-11-19T12:56:30.905Z,2025-11-19T12:56:31.907Z,az
9874,w8gvjxzts5vr605ya87j4x9l,Nəbz Tibb Mərkəzi,CLINIC,+994513200909;+994124213855,,,"Bakı şəh., Nizami ray., Q.Qarayev pr., 31",False,40.41772518,49.93547196,False,2025-06-04T20:13:06.424Z,2025-11-19T12:56:23.273Z,2025-11-19T12:56:23.744Z,az
9912,f4qq1zj7ztr18ziqaylh41tp,AVICENNA Medical Center Lənkaran,CLINIC,+994507203233,,,"Lənkaran şəh., S.Bayramov küç., 19",False,38.75399882,48.85605364,False,2025-06-04T20:13:08.842Z,2025-11-19T12:56:24.313Z,2025-11-19T12:56:25.557Z,az
9967,wjlj12we6apmi4qmzmmagdkq,"36,6 MED",CLINIC,+994515926366;*0033;+994222528366;+994222522366,,,"Gəncə şəh., Kəpəz ray., Atatürk pr., 120B",False,40.69299165,46.36016102,False,2025-06-04T20:13:06.562Z,2025-11-19T12:56:27.049Z,2025-11-19T12:56:27.387Z,az
9994,gurscqixxjtqu50ca60pmf40,Vital Klinika,CLINIC,+994503122312;+994502661041;+994124035210;+994124035220;+994124375230;,,,"Bakı şəh., Yasamal ray., Yeni Yasamal, D.Bünyatzadə küç., 1.",False,40.38813012,49.79267563,False,2025-06-04T20:13:06.836Z,2025-11-19T12:56:27.903Z,2025-11-19T12:56:28.342Z,az
10090,ppchvr46dzq74rni4clptied,Euromed Özəl Tibb Mərkəzi,CLINIC,+994553009598;+994124319598;+994124319341,,,"Bakı şəh., Nəsimi ray., Cavadxan küç., 17A",False,40.41211158,49.81460739,False,2025-06-04T20:13:06.196Z,2025-11-19T12:56:30.812Z,2025-11-19T12:56:31.169Z,az
10121,xf92m8bxroah5uiw9757q20e,MediClub poliklinika,CLINIC,+994502204811;+994124970911,,,"Bakı şəh., Səbail ray., Ü.Hacıbəyov küç., 119",False,40.37600638,49.85601345,False,2025-06-04T20:13:04.643Z,2025-11-19T12:56:31.654Z,2025-11-19T12:56:31.869Z,az
9875,vxfz396hjcyut6hk971gigl2,Sumqayıt Hospital,CLINIC,+994508000255;+994186568255,,,"Sumqayıt şəh., 12-ci mkr., Çerkassı küç., 181",False,40.563104,49.6846517,False,2025-06-04T20:13:06.681Z,2025-11-19T12:56:23.287Z,2025-11-19T12:56:23.770Z,az
10051,c3p78wgp04lhhuuvpnestgw8,Atlas Medical Center,CLINIC,+994507580754;+994124969605;+994124969606,,,"Bakı şəh., Nərimanov ray., Xətai pr., 15",False,40.38740337,49.85647396,False,2025-06-04T20:13:05.761Z,2025-11-19T12:56:29.956Z,2025-11-19T12:56:30.300Z,az
10086,em9234nh9ozkoksan4xhytvn,Bonum Medikal (Şəki),CLINIC,+994506630088;+994706610088,,,"Şəki şəh., Z.Əliyeva küç., 90",False,41.15711221,47.17846177,False,2025-06-04T20:13:07.896Z,2025-11-19T12:56:30.652Z,2025-11-19T12:56:31.059Z,az
9876,cbf4d1lycq00kzo7havyltu1,Labmed (Qazax),CLINIC,+994502739012;+994502739013;+994222950552,,,"Qazax şəh., H.Əliyev pr., 134",False,41.09338915,45.36889454,False,2025-06-04T20:13:08.027Z,2025-11-19T12:56:23.289Z,2025-11-19T12:56:23.780Z,az
9968,z9d7zertp6rjis5qte299n73,Mərkəzi Klinika Gəncə Xəstəxanası,CLINIC,+994502832803;+994222640909,,,"Gəncə şəh., Nizami ray., B.Totanlı küç., 17",False,40.6593975,46.3386882,False,2025-06-04T20:13:06.704Z,2025-11-19T12:56:27.149Z,2025-11-19T12:56:27.442Z,az
10116,epo2j77kto047z1unhl3h0jj,Şans Tibb Mərkəzi (Gəncə),CLINIC,+994702576663;+994222576663,,,"Gəncə şəh., M.Bağırov küç.",False,40.67853642,46.37563092,False,2025-06-04T20:13:06.830Z,2025-11-19T12:56:31.008Z,2025-11-19T12:56:31.816Z,az
10166,fkxg5kae8eqlab5to7bet46i,Batığöz Azərbaycan,CLINIC,"077-433-40-33, 070-703-40-33",,,"Bakı şəhəri, Vaqif prospekti 75 A",False,40.39267,49.84267,False,2025-10-10T10:26:55.763Z,2025-12-04T12:49:30.574Z,2025-12-04T12:49:30.830Z,az
9914,ry9oue8zrwwyqvh8g84sx3y8,Koreya Şərq Təbabəti klinikası,CLINIC,+994502903315;+994503138271;+994124371810;+994124371825,,,"Bakı şəh., Səbail ray., Neftçilər pr., 65",False,40.36006299,49.83346624,False,2025-06-04T20:13:06.740Z,2025-11-19T12:56:24.420Z,2025-11-19T12:56:25.734Z,az
9937,mblub36bl4aljxl76i1u16ar,Mərkəzi Klinika Stasionar,CLINIC,+994124921092(ext.1234;1235;1128;6328);+994502891092,,,"Bakı şəh., Səbail ray., Parlament pr., 76",False,40.36143713,49.82481834,False,2025-06-04T20:13:04.655Z,2025-11-19T12:56:25.764Z,2025-11-19T12:56:26.630Z,az
9960,fb1nzbxtmjdtvgezqo4gbl2c,Qarabağ Bərdə,CLINIC,+994504614000,+994504614000,09:00-17:00,"Bərdə şəh.H.Əliyev küç., 124A",False,40.36179455,47.12767207,False,2025-06-04T20:13:08.536Z,2025-11-19T12:56:26.972Z,2025-11-19T12:56:27.251Z,az
10047,kq5qw60fardgrkmptpnhcx2r,Sədəf klinikası,CLINIC,+994503087866;+994124463304,,,"Bakı şəh., Qaradağ ray., Sahil qəs., B.Əliyev küç., 33",False,40.2206548,49.57426529,False,2025-06-04T20:13:06.513Z,2025-11-19T12:56:29.877Z,2025-11-19T12:56:30.195Z,az
10073,e0o3ibwit4qvg7me3zdxxaue,Zəfəran Hospital,CLINIC,+994554556903;*9977,,,"Bakı şəh., Nərimanov ray., A.Məmmədov küç., 30",False,40.39431436,49.88101451,False,2025-06-04T20:13:06.786Z,2025-11-19T12:56:30.499Z,2025-11-19T12:56:30.775Z,az
9880,ib8iicitj7o0pg5zt3qegghx,İnternational Medical Centre,CLINIC,+994557486674;+994125961316;+994125961391(ext.111),,,"Bakı şəh., Nəsimi ray., R.Rza küç., 26",False,40.37431783,49.83827253,False,2025-06-04T20:13:06.114Z,2025-11-19T12:56:23.420Z,2025-11-19T12:56:23.888Z,az
9996,pam9u7o17etiu37x8pmhk6xy,MediClub Hospital,CLINIC,+994507640737;+994124988911;+994124935152;+994125960943;+994125968211;+994125981911,,,"Bakı şəh., Yasamal ray.,  İslam Səfərli küç., 33",False,40.37362779,49.83468716,False,2025-06-04T20:13:07.723Z,2025-11-19T12:56:27.893Z,2025-11-19T12:56:28.437Z,az
10028,kwadcv9qd744repl8x5ex8ad,MedEra Hospital,CLINIC,+994552108136;+994125635612;+994125635615,,,"Bakı şəh., Binəqədi ray., Ə.Naxcivani küç., 53",False,40.41644065,49.84153755,False,2025-06-04T20:13:07.776Z,2025-11-19T12:56:29.005Z,2025-11-19T12:56:29.513Z,az
10076,iqand3xpkwxg1n37nkfit3xs,Evromed klinikası  (Mingəçevir),CLINIC,+994503928344,,,"Mingəçevir şəh., S.Mehmandarov küç., 23A",False,40.76774628,47.05232699,False,2025-06-04T20:13:06.107Z,2025-11-19T12:56:30.578Z,2025-11-19T12:56:30.823Z,az
10105,pr4pzzksusa11cx7cyz18vo1,Medisan (İmişli şəhəri),CLINIC,+994702461070;+994212461070,,,"İmişli şəh., H. Əliyev pr., 131",False,39.86946025,48.06003829,False,2025-06-04T20:13:04.128Z,2025-11-19T12:56:31.237Z,2025-11-19T12:56:31.549Z,az
10131,f4976l5omhbjuwkjj40qg9c6,LOR Hospital,CLINIC,+994774680111,,,"Bakı şəh., Nərimanov ray., Əhməd Rəcəbli küç., 19K",False,40.40962762,49.86329834,False,2025-06-04T20:13:06.188Z,2025-11-19T12:56:31.737Z,2025-11-19T12:56:32.077Z,az
9881,hwexgoqv4e4ne30mdi1cmk3g,Sağlam Həyat,CLINIC,+994508071780,+994508071780.,,"Qəbələ şəh., H.Aslanov küç., 102",False,40.97623893,47.85387819,False,2025-06-04T20:13:08.913Z,2025-11-19T12:56:23.275Z,2025-11-19T12:56:23.904Z,az
9943,afzs5neqdt2ivlv1mmlekqqi,Labstyle,CLINIC,+994702252971;+994516761966,,,"Zaqatala şəh., Molla Vəli Vidadi küç., 34",False,41.62860014,46.64034233,False,2025-06-04T20:13:06.187Z,2025-11-19T12:56:25.856Z,2025-11-19T12:56:26.763Z,az
10005,ocxe9fat1rcprisje1h2w8ps,Sağlam Ailə Ultralab filialı,CLINIC,+99412910;+994124401300,+994554000910,Bazar ertəsi-Şənbə saat 07:00-dan 17:00-dək  Bayram və bazar günləri saat 07:00-dan 16:00-dək,"Bakı şəh. Asif Məhərrəmov küç. 156C, AZ1102",False,40.40968,49.80825,False,2025-06-04T20:13:04.293Z,2025-11-19T12:56:27.869Z,2025-11-19T12:56:28.410Z,az
10118,bzyok39ox8y5steun2z2wpa9,Uniklinika,CLINIC,+994502090165,,,"Bakı şəh., Yasamal ray., K.Kazımzadə küç., 115",False,40.37703591,49.81839527,False,2025-06-04T20:13:07.941Z,2025-11-19T12:56:31.601Z,2025-11-19T12:56:31.841Z,az
9882,zr47ytqm1i4thcx0q67rn5i6,Lux İnternational Hospital,CLINIC,+994508003060,,,"Bakı şəh., Nərimanov ray., Faiq Yusifov küç., 146A",False,40.40563547,49.87292536,False,2025-06-04T20:13:09.388Z,2025-11-19T12:56:23.436Z,2025-11-19T12:56:23.924Z,az
9966,h9surku7he9tdg7znihulftr,Referans Klinik Laboratoriya Nəsimi,CLINIC,99704160033,,,"Bakı şəh., Nəsimi ray., M.Mirqasımov küç., 25A",False,40.39490721,49.83795706,False,2025-06-04T20:13:08.822Z,2025-11-19T12:56:27.118Z,2025-11-19T12:56:27.378Z,az
10013,zxfokg6h6ubr29dj6zoxq03p,Gəncə Beynəlxalq Xəstəxanası,CLINIC,+994555007113;+994555007125;+994555007125,,,"Gəncə şəh., H.Əliyev pr., 60D/E/F",False,40.69462931,46.36609919,False,2025-06-04T20:13:08.101Z,2025-11-19T12:56:28.867Z,2025-11-19T12:56:29.146Z,az
10052,odpiby2up2j3fmjmky8bujwz,Doktor AZ,CLINIC,+994555247839,+994555247839,,"Sumqayıt şəh., S.Bədəlbəyli küç., 42H",False,40.57341857,49.67800089,False,2025-06-04T20:13:08.547Z,2025-11-19T12:56:29.435Z,2025-11-19T12:56:30.285Z,az
10100,rgbbk0x10xawp7zxlfj91lle,Mediland,CLINIC,+994774740324;+994124887408;+994124887418;+994124887450;+994124887451;;+994124887452,,,"Bakı şəh., Xətai ray., S.Orucov küç., 17C",False,40.3807211,49.8699126,False,2025-06-04T20:13:06.186Z,2025-11-19T12:56:31.103Z,2025-11-19T12:56:31.405Z,az
10119,efm8uyv62xlqjh13yyjyk8mc,Naxçıvan Sağlamlıq Mərkəzi,CLINIC,+994365446291,,,"Naxçıvan şəh., Əziz Əliyev küç., 22 A",False,39.21668601,45.4206087,False,2025-06-04T20:13:09.378Z,2025-11-19T12:56:31.609Z,2025-11-19T12:56:31.854Z,az
9883,t8iw9kgjhk3gih363r8vk3qh,Oksigen Yeni Tibb Mərkəzi,CLINIC,+994502717179;906;+994124650023;+994124650024,,,"Bakı şəh., Nərimanov ray., Təbriz küç.",False,40.40365134,49.87001122,False,2025-06-04T20:13:06.236Z,2025-11-19T12:56:23.458Z,2025-11-19T12:56:23.930Z,az
9911,n5i9u1806ku4rpdk8fa1df5d,Liman klinikası (Sumqayıt şəhəri),CLINIC,+994502352434;+994124480600;+994185851421,,,"Sumqayıt şəh., 6-cı mkr., S.Vurğun küç., 35 A",False,40.58048696,49.68995378,False,2025-06-04T20:13:06.172Z,2025-11-19T12:56:24.961Z,2025-11-19T12:56:25.544Z,az
9931,cvkjwbiufxmz2k5q136ldw1v,Respublika Müalicəvi Diaqnostika Mərkəzi,CLINIC,+994502293940;913;+994125300753;+994125309029(ext.150),,,"Bakı şəh., Yasamal ray., Tbilisi pr., 147",False,40.39979849,49.81039484,False,2025-06-04T20:13:06.780Z,2025-11-19T12:56:26.015Z,2025-11-19T12:56:26.514Z,az
9987,im1fk2e1behgrggsnn81e5cc,Leyla Medical Center klinikası,CLINIC,+994502817091;+994502257330;+994124902131;+994124965105;+994124965106,,,"Bakı şəh., Xətai ray., Y.Səfərov küç.",False,40.38201848,49.86340048,False,2025-06-04T20:13:08.113Z,2025-11-19T12:56:27.463Z,2025-11-19T12:56:27.882Z,az
10063,hdi6hh631l9rnusl17eqw6cj,Referans Qəbələ Tibb Mərkəzi,CLINIC,+994773450033,,,"Qəbələ şəh., A.Səhhət küç., 25A",False,40.9671567,47.84328772,False,2025-06-04T20:13:04.176Z,2025-11-19T12:56:30.280Z,2025-11-19T12:56:30.486Z,az
10132,vvya3y2yzgo39zwxgrtw88si,Avrasiya Hospital,CLINIC,+994502875587;+994559797137;+994124496420;+994124496414;1116,,,"Bakı şəh., Nəsimi ray., H.Əliyev küç., 15 (İnqilab)
",False,40.39817474,49.8283946,False,2025-06-04T20:13:04.436Z,2025-11-19T12:56:31.876Z,2025-11-19T12:56:32.127Z,az
9884,pwv81m9fwuui62qust0zyfz6,Medistyle,CLINIC,+994709797109;+994519790004;+994124657379,,,"Bakı şəh., Nərimanov ray., H.Əliyev küç., 116",False,40.40639479,49.86234516,False,2025-06-04T20:13:07.622Z,2025-11-19T12:56:23.482Z,2025-11-19T12:56:23.962Z,az
9941,rwk2mmfr96240d5g63z4qn0b,Azərbaycan Tibb Universitetinin Tədris Cərrahiyyə Klinikası,CLINIC,+994512051714;+994124400126;+994129231158;+994129231328,,,"Bakı şəh., Nəsimi ray., S.Vurğun küç., 155",False,40.39242136,49.83442282,False,2025-06-04T20:13:06.153Z,2025-11-19T12:56:26.269Z,2025-11-19T12:56:26.770Z,az
10112,rceatmk18vghqy08edkmackg,Caspian İnternational Hospital,CLINIC,+994553007089;+994125025015;+994125025018;+994125025916,,,"Bakı şəh., Səbail ray., Badamdar şos., 1-ci yaşayış massivi, 31",False,40.34331667,49.81023091,False,2025-06-04T20:13:05.800Z,2025-11-19T12:56:31.561Z,2025-11-19T12:56:31.776Z,az
10139,v5aa31xdue4xjysdehh7jax2,REAL Hospital,CLINIC,+994513100173;+994125372323(ext.326),,,"Bakı şəh., Yasamal ray., Z.Xəlilov küç., 99",False,40.3809863,49.81094271,False,2025-06-04T20:13:06.354Z,2025-11-19T12:56:32.058Z,2025-11-19T12:56:32.340Z,az
9988,iz3rf96ij75l8kb8iohm4k9q,Celamig,CLINIC,+994707389000;+994505011710;+994125961251;+994125961687;+994125371101;+994125371102;,,,"Bakı şəh., Nəsimi ray., S.Rəhimov küç., 126/64",False,40.37822607,49.83771215,False,2025-06-04T20:13:05.805Z,2025-11-19T12:56:27.613Z,2025-11-19T12:56:27.945Z,az
10015,sqpozbqwzlhx9l868ofd15mt,Ömürdən pay,CLINIC,+994502867688;+994202053100,,,"Bərdə şəh., N.Nərimanov küç., 2",False,40.37396048,47.1214913,False,2025-06-04T20:13:06.188Z,2025-11-19T12:56:29.000Z,2025-11-19T12:56:29.247Z,az
9991,v0g2f5f08dqo4mznqsyxbsd4,MediClub poliklinika KİDS,CLINIC,+994502504911;+994502000640;+994125250919;+9941252509290124989811;+994125981911,,,"Bakı şəh., Səbail ray., İ.Nəbiyev küç., 30A",False,40.35903918,49.82277293,False,2025-06-04T20:13:06.706Z,2025-11-19T12:56:27.484Z,2025-11-19T12:56:28.117Z,az
10054,epigfx8e6vy42erkuj4w4ttv,Bakı Sağlamlıq Mərkəzi,CLINIC,950;+994512297025;+994512297026;+994512297022(17:00sonra),,,"Bakı şəh., Nəsimi ray., N.Yusifbəyli küç., 112, Azadlıq pr. kəsişməsi",False,40.39858887,49.83980654,False,2025-06-04T20:13:07.783Z,2025-11-19T12:56:29.413Z,2025-11-19T12:56:30.341Z,az
10111,ejkrw4ybbm2pkot4y53brtcv,Bioloji Təbabət (Göyçay),CLINIC,+994502461411;+994552597090,,,"Göyçay şəh., M.Muradov küç., 12",False,40.65385398,47.75102394,False,2025-06-04T20:13:06.173Z,2025-11-19T12:56:30.904Z,2025-11-19T12:56:31.714Z,az
9948,mwznvgx4vqqwkj476kulrhgl,Bakı Medikal Plaza,CLINIC,+994506758341;+994506758341,,,"Bakı şəh., Xətai ray., Babək pr., 92N",False,40.3942614,49.9648962,False,2025-06-04T20:13:07.872Z,2025-11-19T12:56:25.921Z,2025-11-19T12:56:26.861Z,az
9998,k4ofxuh6g4d2c3w6bp0dcx2d,Həyat Tibb Mərkəzi,CLINIC,+994704047592;+994125599748,,,"Bakı şəh., Qala qəs., Xaşaxuna bağları 91K",False,40.42679529,50.21556673,False,2025-06-04T20:13:07.503Z,2025-11-19T12:56:28.115Z,2025-11-19T12:56:28.490Z,az
10072,offd92r6wl4vw2qucbvp5ksi,Mərcan Klinikası,CLINIC,+994554508505,+994554508505,,"Bakı şəh., Nəsimi ray., M.Cəfərov küç., 12",False,40.40547162,49.81009503,False,2025-06-04T20:13:08.480Z,2025-11-19T12:56:30.418Z,2025-11-19T12:56:30.725Z,az
10096,ywk8qbms1i64cgr6tmy81eth,Referans Klinik Laboratoriya,CLINIC,+994519650033;+994123100033(ext.102),,,"Bakı şəh., Nərimanov ray., M.Məmmədzadə küç., 8A",False,40.40020989,49.8724897,False,2025-06-04T20:13:06.710Z,2025-11-19T12:56:31.047Z,2025-11-19T12:56:31.315Z,az
9889,fh0twazito4ruk9stp5ydo97,Alyans  klinikası (Şəki),CLINIC,+994559255511;+994242449214,,,"Şəki şəh., M.F.Axundov küç., 351A",False,41.19791083,47.17864152,False,2025-06-04T20:13:07.974Z,2025-11-19T12:56:23.543Z,2025-11-19T12:56:24.033Z,az
10024,z3ksclfe3irnxevxgwq75fve,Bioloji Təbabət (Masallı),CLINIC,+994555328988;+994252155089,,,"Masallı şəh., E.Hüseynov küç.",False,39.02225973,48.68022887,False,2025-06-04T20:13:07.987Z,2025-11-19T12:56:28.858Z,2025-11-19T12:56:29.386Z,az
10077,axfz2g58k5kbavakpfv2gfhc,Milana Hospital,CLINIC,+994124099091;+994122102287;+994503004329;+994503784364,,,"Bakı şəh., Nərimanov ray., Ə. Rəcəbli küç., 1/21",False,40.41002807,49.86200456,False,2025-06-04T20:13:06.428Z,2025-11-19T12:56:30.428Z,2025-11-19T12:56:30.827Z,az
10110,mosos2o5ukw8vc27l0mhlnt9,EGE Hospital,CLINIC,+994775250547;+994125991117,,,"Bakı şəh., Nərimanov ray., H.Əliyev küç., 38",False,40.3990525,49.8354792,False,2025-06-04T20:13:06.739Z,2025-11-19T12:56:31.546Z,2025-11-19T12:56:31.745Z,az
10045,z2plkbn2qvhsbd29rffzdy9c,Assmed  (Lökbatan qəsəbəsi),CLINIC,+994505458322;+994124451717;+994124451818(ext.101),,,"Bakı şəh., Qaradağ ray., Lökbatan qəs., D.Bünyadzadə küç., 3A",False,40.32027542,49.73243596,False,2025-06-04T20:13:05.800Z,2025-11-19T12:56:29.156Z,2025-11-19T12:56:30.130Z,az
9910,v5fft83suf3mm2dgx2sgn27g,Med Life,CLINIC,+994508391718,,,"Goranbay şəh., C. Cabbarlı küç., 33",False,40.60717874,46.78703002,False,2025-06-04T20:13:09.300Z,2025-11-19T12:56:24.827Z,2025-11-19T12:56:25.560Z,az
10003,o4cvp2h0dxhwox15hyzs421p,Hayat Clinic,CLINIC,+994557792130;+994708221404;+994124041404(ext.205),,,"Bakı şəh., Yasamal ray., Mətbuat pr., 35A",False,40.377559,49.808733,False,2025-06-04T20:13:06.128Z,2025-11-19T12:56:27.870Z,2025-11-19T12:56:28.673Z,az
10089,vg06az0gxx528b17nw7xxvq6,Medservis Özəl Tibb Mərkəzi,CLINIC,+994125966848;+994125966844;+994502205612,,,"Bakı şəh., Yasamal ray., C. Məmmədquluzadə küç., 3",False,40.37907479,49.8331947,False,2025-06-04T20:13:07.665Z,2025-11-19T12:56:30.743Z,2025-11-19T12:56:31.127Z,az
9974,gu5wdeedxv5tn43xyhx5ys6z,Real Tibb Mərkəzi,CLINIC,+994503860701;+994125851269;+994124470426;+994124097700,,,"Sumqayıt şəh., 45-ci məhəllə, 14 saylı bina",False,40.58032201,49.68097015,False,2025-06-04T20:13:07.430Z,2025-11-19T12:56:27.271Z,2025-11-19T12:56:27.577Z,az
10141,h5b4jqcezdau7q14c4ed73bc,German Hospital,CLINIC,+994554557870;+994512556276;+994125386660;+994125386661;+994125386662,,,"Bakı şəh., Yasamal ray., İ.Qutqaşınlı küç., 50",False,40.36955415,49.82105161,False,2025-06-04T20:13:06.105Z,2025-11-19T12:56:32.083Z,2025-11-19T12:56:32.392Z,az
10025,mwgls1ggkqs6noujq5yif958,Tuva Tibb Mərkəzi (Masallı),CLINIC,+994503570318,,,"Masallı şəh., Qızlavar kəndi",False,38.9687308,48.66981719,False,2025-06-04T20:13:06.820Z,2025-11-19T12:56:29.149Z,2025-11-19T12:56:29.404Z,az
10057,o4cc5svxjdbsmo3l5nmpl06e,Diaqnoz Tibb Mərkəzi,CLINIC,+994557544303;+994123704064,,,"Bakı şəh., Xətai ray., Sarayevo küç., 38C",False,40.38629591,49.96354073,False,2025-06-04T20:13:05.783Z,2025-11-19T12:56:30.198Z,2025-11-19T12:56:30.427Z,az
9892,s6t8ak3rn9qszby9m3s00c0x,Məlhəm Beynəlxalq Hospital,CLINIC,+994512017101,,,"Bakı şəh., Nizami ray., C. Naxçıvanski küç., 433",False,40.40760021,49.95469877,False,2025-06-04T20:13:06.768Z,2025-11-19T12:56:23.688Z,2025-11-19T12:56:24.290Z,az
10048,x47x4udw1gnhdbru167rk7zp,Funda Hospital,CLINIC,*777;+994125675582;+994125672844,,,"Bakı şəh., Nərimanov ray., İ.Hidayyətzadə küç., 163",False,40.39417483,49.87219012,False,2025-06-04T20:13:06.786Z,2025-11-19T12:56:29.896Z,2025-11-19T12:56:30.220Z,az
10147,sp3545xp8id3zsjg1u799xhp,Sağlam Ailə,CLINIC,+994552223215;910;+994124047770;+994124401300,,,"Bakı şəh, Nərimanov rayonu, Əhməd Rəcəbli küç. 3/10",False,40.4094614,49.86202639,False,2025-06-04T20:13:07.758Z,2025-11-19T12:56:32.193Z,2025-11-19T12:56:32.559Z,az
10006,y7mhkf9dh5rbll1u482yzr6m,Medikus,CLINIC,+994102123757,993123757,,"Şirvan şəh., M.İbrahimov küç., 266",False,39.95581054,48.94320832,False,2025-06-04T20:13:04.199Z,2025-11-19T12:56:28.215Z,2025-11-19T12:56:28.794Z,az
10031,ma66dsubqoerikm9fnton848,VİTA MED klinikası,CLINIC,+994707650008;+994517950008;+994252950008,,,"Biləsuvar şəh.,M. İbrahimov küç., 224B",False,39.4558879,48.5436467,False,2025-06-04T20:13:07.714Z,2025-11-19T12:56:29.179Z,2025-11-19T12:56:29.518Z,az
10134,kofra9io628qvz3bff5rypba,Şəfa Özəl Tibb Mərkəzi (Naxçıvan),CLINIC,+994503476649;+994705457689;+994365456432,,,"Naxçıvan şəh., Cəlil Məmmədquluzadə küç., 13",False,39.20106252,45.41196841,False,2025-06-04T20:13:06.567Z,2025-11-19T12:56:31.773Z,2025-11-19T12:56:32.167Z,az
9921,wy0vjzw67ouuzkab8o9ab330,Xüsusi Müalicə Sağlamlıq Kompleksi (XMSK),CLINIC,+994503780034;+994124988507;+994124938125;+994125024862;+994124930600,,,"Bakı şəh., Səbail ray., Badamdar qəs., Badamdar şossesi 31T",False,40.35299613,49.80922868,False,2025-06-04T20:13:06.236Z,2025-11-19T12:56:25.471Z,2025-11-19T12:56:25.937Z,az
9894,e8mlkdmbp56u3vpx48zb9al7,Şans Tibb Mərkəzi (Şəmkir),CLINIC,+994703055442,+994703055442,,"Şəmkir şəh.,Vidadi küç., 2",False,40.82880794,46.01661991,False,2025-06-04T20:13:08.529Z,2025-11-19T12:56:23.732Z,2025-11-19T12:56:24.287Z,az
9985,lk0bqbjblhj2jnhaha4ekdue,Referans Naxçıvan Tibb mərkəzi,CLINIC,+994606000033,,,"Naxçıvan şəh., 11 ci məhəllə, döngə 6 (yeni Naxçıvan, kanal 35 yaxınlığı)",False,39.20301496,45.42891042,False,2025-06-04T20:13:09.301Z,2025-11-19T12:56:27.608Z,2025-11-19T12:56:27.833Z,az
9920,hhrlemehg714wqae7atvp0uq,Regional Hospital,CLINIC,+994503067733,,,"Mingəçevir şəh., D.Əliyeva küç., 2C",False,40.77524234,47.04820732,False,2025-06-04T20:13:09.052Z,2025-11-19T12:56:25.471Z,2025-11-19T12:56:25.946Z,az
10001,aatbyvnch2v1hy0yit5ydp35,Badam Medical Center,CLINIC,+994512058025;+994125396699,,,"Bakı şəh., Səbail ray., Badamdar qəs., A.Abbaszadə küç., 13A",False,40.35249019,49.81334483,False,2025-06-04T20:13:06.516Z,2025-11-19T12:56:28.227Z,2025-11-19T12:56:28.606Z,az
10133,heu9n8k49xj8bl2k1cpyz4le,Hayat Hospital (Zaqatala),CLINIC,+994508904422;+994242254422,,,"Zaqatala şəh., M.V.Vidadi küç., 3",False,41.62977653,46.64392572,False,2025-06-04T20:13:08.005Z,2025-11-19T12:56:31.802Z,2025-11-19T12:56:32.136Z,az
10016,mmmtpqzimesxe5qzl352fquj,Yovşan Klinika,CLINIC,+994772953838,,,"Biləsuvar ray., H.Əliyev pros., 333",False,39.46071396,48.54146458,False,2025-06-04T20:13:09.371Z,2025-11-19T12:56:29.003Z,2025-11-19T12:56:29.254Z,az
10128,l1292uz0x4kxjku2mhp7tejq,Omeqa Clinic,CLINIC,+994553729565,+994553729565,,"Sabirabad şəh., H.Əliyev pr., 48",False,40.00447937,48.47095142,False,2025-06-04T20:13:08.811Z,2025-11-19T12:56:31.800Z,2025-11-19T12:56:32.071Z,az
9942,qqiiwedqcm1ktaofkk6vapva,Stimul Hospital,CLINIC,+994705502020;+994125653838;+994125653808(ext.113),,,"Bakı şəh., Sabunçu ray., Y.Əliyev küç., 26 C",False,40.43369186,49.95641512,False,2025-06-04T20:13:07.856Z,2025-11-19T12:56:26.417Z,2025-11-19T12:56:26.790Z,az
10138,f88vv3iqco4s2yfh11wmdmpn,Türk-American Medical Centre,CLINIC,+994502300450;+994124973784;+994125962024(103),,,"Bakı şəh., Nərimanov ray., Y.V.Çəmənzəminli küç., 18",False,40.4018043,49.83348767,False,2025-06-04T20:13:07.716Z,2025-11-19T12:56:32.029Z,2025-11-19T12:56:32.312Z,az
10002,n6voyuri9q34ntnipdzde17m,Referans Klinik Laboratoriya Mərdəkan,CLINIC,+994702630033,,,"Bakı şəh., Xəzər ray., Mərdəkan qəs., S.Yesenin küç., 92/1 və 92/2",False,40.49012866,50.15088104,False,2025-06-04T20:13:06.098Z,2025-11-19T12:56:28.061Z,2025-11-19T12:56:28.649Z,az
10154,p5wi7usxnshgys0j5f5pif7q,Medican (Lənkəran şəhəri),CLINIC,+994702550298;+994502660298;+994252550298,,,"Lənkəran şəh., 20 Yanvar küç., 71",False,38.7545724,48.8374881,False,2025-06-04T20:13:08.008Z,2025-11-19T12:56:32.556Z,2025-11-19T12:56:32.845Z,az
10081,gpu02e5cgrmyu27ytg0m2eot,Dobromed  (Spero Hospital),CLINIC,+994552233050;+994124304303;+994124304226,,,"Bakı şəh., Nəsimi ray., 20 Yanvar küç.,1B",False,40.41158975,49.80379073,False,2025-06-04T20:13:07.859Z,2025-11-19T12:56:30.634Z,2025-11-19T12:56:30.945Z,az
10056,a013iaq0klv8tc7ux8vtpda1,OKİ Özəl Tibbi müalicəxanası (Qusar),CLINIC,+994513640310;+994505971647;+994233852915,,,"Qusar şəh., F.Musayev küç., 27",False,41.4257721,48.4306896,False,2025-06-04T20:13:06.238Z,2025-11-19T12:56:30.183Z,2025-11-19T12:56:30.391Z,az
9284,k9q3ouc0hg0or546m1m09w5t,Mediaz Hospital,CLINIC,0508001024,,,"Quba şəhəri, Qələbə küçəsi 26",False,41.35967,48.51354,False,2025-10-10T10:38:49.540Z,2025-10-10T10:39:49.858Z,2025-10-10T10:39:49.892Z,az
9973,vf2pqvgehswvru8z15z7apra,City Hospital,CLINIC,+994505200303;+994502783796;+994502783799;+994124405111;+994124404455,,,"Bakı şəh., Nərimanov ray., Y.V.Çəmənzəminli küç., 18",False,40.40194605,49.83400664,False,2025-06-04T20:13:05.759Z,2025-11-19T12:56:27.132Z,2025-11-19T12:56:27.527Z,az
10032,kba6xwdqmy8wrur7zuswffua,Liv Bona Dea Hospital (Şərtləri dəqiqləşdirmək üçün tibbi çəğrı mərkəzi (*7000) ilə əlaqə saxlayın),CLINIC,+994502564648;+994512076070,,,"Bakı şəh., Mehdi Abbasov küç., 2",False,40.41271655,49.93055143,False,2025-06-04T20:13:08.883Z,2025-11-19T12:56:29.075Z,2025-11-19T12:56:29.661Z,az
9900,i3u3e3mb9sv9x4ka16qnma15,Dünya Göz Azərbaycan,CLINIC,+994502732481;+994124044469,,,"Bakı şəh., Səbail ray., Bayıl qəs., M.Hüseynov pr., 39",False,40.34938154,49.83585516,False,2025-06-04T20:13:06.217Z,2025-11-19T12:56:23.606Z,2025-11-19T12:56:24.611Z,az
9976,uyxoeoa16t1y706bp3ve46ct,Azərbaycan Tibb Universitetinin Tədris Terapevtik Klinikası,CLINIC,+994124413318;+994124413348,,,"Bakı şəh., Nəsimi ray., Mərdənov qardaşları küç., 100",False,40.39677823,49.83171729,False,2025-06-04T20:13:05.819Z,2025-11-19T12:56:27.399Z,2025-11-19T12:56:27.599Z,az
10004,ihw56m1fp0oi8x2nfjrna1jd,Unikal klinika,CLINIC,+994 50 285 21 76,,,"Sumqayıt şəh., İsmət Qayıbov küçəsi, giriş 2 (Nur şadlıq sarayının yanı) ",False,40.57601423,49.67927351,False,2025-06-04T20:13:06.684Z,2025-11-19T12:56:28.150Z,2025-11-19T12:56:28.666Z,az
10087,oct1ho55xegoiwmstppao8p5,Azərbaycan Respublikası Dövlət Gömrük Komitəsi Tibb Xidmət İdarəsinin Mərkəzi Hospitalı,CLINIC,+994502460037;+994125370193,,,"Bakı şəh., Yasamal ray., K.Kazımzadə küç., 118",False,40.3781862,49.8188062,False,2025-06-04T20:13:06.750Z,2025-11-19T12:56:30.782Z,2025-11-19T12:56:31.071Z,az
9031,thiwm4c5h90fzmzke37510xs,Aran Regional Klinika,CLINIC,055 367 00 52,,,"Səlyan rayonu, 123 Taleh Davudzadə, Salyan 5200",False,39.6,48.99,False,2025-07-29T06:47:46.959Z,2025-07-29T06:47:48.680Z,2025-07-29T06:47:48.703Z,az
9045,uipdgknkpxwmwv5epxlia6v5,MedSun Klinika,CLINIC,010 336 01 01,,,"Şamaxı şəhəri, Azərbaycan küçəsi 15",False,40.64,48.64,False,2025-07-29T06:54:33.929Z,2025-07-29T06:54:35.733Z,2025-07-29T06:54:35.753Z,az
9290,houo7bnimsi7ghjuostb7dw3,Leyla Medical Center - 2 Pediatriya,CLINIC,055-255-43-37,,24/7,"Nərimanov r-nu, Məmməd Araz, 27",True,40.40639,49.84112,False,2025-10-10T10:32:46.023Z,2025-10-14T06:40:12.795Z,2025-10-14T06:40:12.826Z,az
9291,c4k75yj5jb1khm4b8ap2m8rs,Boulevard Medical Center,CLINIC,*5225 / (+99410) 2322525 / (+99455) 5242525,,,Sumqayıt şəhəri. Bulvar küç 79A,False,40.59517,49.68237,False,2025-10-10T10:35:42.523Z,2025-10-16T10:38:20.777Z,2025-10-16T10:38:20.804Z,az
9897,phg16sidfuwsirasrk5muluj,Səhhət Klinikası,CLINIC,+994502720196;+994124475092;+994124478555;+994123706042,,,"Bakı şəh., Nizami ray., Q.Qarayev pr., 103",False,40.39601029,49.95396126,False,2025-06-04T20:13:07.898Z,2025-11-19T12:56:23.759Z,2025-11-19T12:56:24.373Z,az
9296,t9xelvk6aa93pisnhzbxf4fp,Universal Hospital,CLINIC,(012)5996556 / *6556,,24/7,Bakı şəh. Cəfər Xəndan 196,True,40.41882,49.84518,False,2025-11-12T06:47:18.656Z,2025-11-17T12:41:25.242Z,2025-11-17T12:41:25.302Z,az
10158,rn9jy4enos4u5gfsxp40on7s,Vita Med Tibb Mərkəzi (Biləsuvar),CLINIC,,,,"224B Mirzə Fətəli Axundov, Biləsuvar",False,39.45604,48.54365,False,2025-11-20T08:07:41.624Z,2025-11-20T08:07:42.744Z,2025-11-20T08:07:42.805Z,az
9871,deifea55z5edictxk5z8bmsl,Sağlam Ailə MDK filialı,CLINIC,+99412910; +994124401300,+994554000910,Bazar ertəsi-Şənbə saat 07:00-dan 17:00-dək  Bazar və bayram günləri saat 07:00-dan 16:00-dək,"Bakı şəh., Rəşid Behbudov küç. 56, AZ1014 (""OVIR"" yaxınlığında)",False,40.38258,49.84331,False,2025-06-04T20:13:09.450Z,2025-11-19T12:56:23.238Z,2025-11-19T12:56:23.693Z,az
10010,qy0i1rhva7102nyczk4oq5ss,Real Tibb Mərkəzi  (Stomatoloji xidmətlər göstərilir),DENTAL,+994503860701;+994125851269;+994124470426;+994124097700,,,"Sumqayıt şəh., 45-ci məhəllə, 14 saylı bina",False,40.58032201,49.68097015,False,2025-06-04T20:13:07.662Z,2025-11-19T12:56:28.690Z,2025-11-19T12:56:29.057Z,az
10071,p93iw4hmwzb07kkpiz49ue34,32 Gözəl,DENTAL,+994705333232;+994554402020;+994125967313,,,"Bakı şəh., Yasamal ray., Azərbaycan pr., 14",False,40.3715944,49.83373211,False,2025-06-04T20:13:05.420Z,2025-11-19T12:56:30.431Z,2025-11-19T12:56:30.746Z,az
10120,wfr3grfi5q6q63f1mxak4uh8,Modern Hospital  (Stomatoloji xidmətlər göstərilir),DENTAL,+994554910949,,,"Bakı şəh., Nizami ray., Babək pr., 85K",False,40.39550586,49.94819867,False,2025-06-04T20:13:08.242Z,2025-11-19T12:56:31.613Z,2025-11-19T12:56:31.860Z,az
9908,cq9hvt6qrgzycdvjk21ab764,Labmed Tibb Mərkəzi (Stomatoloji xidmətlər göstərilir),DENTAL,+994502739012;+994502739013;+994222950552,,,"Qazax şəh., H.Əliyev pr., 134",False,41.09338915,45.36889454,False,2025-06-04T20:13:07.496Z,2025-11-19T12:56:24.225Z,2025-11-19T12:56:25.452Z,az
10014,i4owldbs66200b00ckz79gdr,Azərbaycan Tibb Universitetinin Tədris Stomatoloji Klinikası,DENTAL,+994124498255;+994504219871,,,"Bakı şəh., Nəsimi ray., Səməd Vurğun küç., 175",False,40.39914382,49.83226496,False,2025-06-04T20:13:09.122Z,2025-11-19T12:56:28.970Z,2025-11-19T12:56:29.205Z,az
9872,s6qgsvt9tcct5y8fm92tb1hc,Caspian İnternational Hospital  (Stomatoloji xidmətlər göstərilir),DENTAL,+994553007089;+994125025015;+994125025018;+994125025916,,,"Bakı şəh., Səbail ray., Badamdar şos., 1-ci yaşayış massivi, 31",False,40.34331667,49.81023091,False,2025-06-04T20:13:08.185Z,2025-11-19T12:56:23.251Z,2025-11-19T12:56:23.659Z,az
10135,r9h3fio9rh718vtgylnlw7y4,22 ƏSR,DENTAL,+994513580150;+994702580150;+994124092327,,,"Sumqayıt şəh., 17-ci mkr., İ.Qayibov küç., 51 məh.",False,40.56412516,49.70992692,False,2025-06-04T20:13:05.766Z,2025-11-19T12:56:31.650Z,2025-11-19T12:56:32.163Z,az
10064,gx18848q5jgdbom9edwf3zdm,Apex,DENTAL,+994125254844;+994125254847,,,"Bakı şəh., Yasamal ray., H.Məcidov küç., 12",False,40.38330167,49.80983927,False,2025-06-04T20:13:08.480Z,2025-11-19T12:56:29.932Z,2025-11-19T12:56:30.482Z,az
10145,audjee4kgbv49ar3x33m7de5,Sağlam Diş (Qara Qarayev filialı),DENTAL,+994555203151;+994125203151;+994125203161,,,"Bakı şəh., Nizami ray., Ə.Hacıyev küç., 15",False,40.41531639,49.93248289,False,2025-06-04T20:13:06.799Z,2025-11-19T12:56:32.209Z,2025-11-19T12:56:32.484Z,az
10161,a0fwev4cxgef9ek66vk53goi,EMV Dent,DENTAL,+994502111492,,,"Bakı şəh., Nərimanov ray., Təbriz küç., giriş 209G, M2, m1",False,40.40420766,49.87341617,False,2025-06-04T20:13:06.285Z,2025-11-20T10:12:31.822Z,2025-11-20T10:12:31.889Z,az
10062,w2v1nory5cwrbjmcqyqyuloa,Mərkəzi Klinika Stomatologiya,DENTAL,+994552924202;+994124924202,,,"Bakı şəh., Səbail ray., Xəqani küç., 90D",False,40.37676302,49.85545526,False,2025-06-04T20:13:07.705Z,2025-11-19T12:56:30.278Z,2025-11-19T12:56:30.479Z,az
9999,heh11atsbmanu6jlt50j66o5,Dental Art,DENTAL,+994503761122;+994552161122;+994703661122;+994185481139,,,"Sumqayıt şəh., 12-ci mkr., Koroğlu pros., 1/2",False,40.5654612,49.6858459,False,2025-06-04T20:13:06.655Z,2025-11-19T12:56:28.139Z,2025-11-19T12:56:28.511Z,az
9992,hs5zpxhmnkifti58lcc5drjn,Premium Dental,DENTAL,+994703366896,,,"Bakı şəh., Binəqədi ray., Azadlıq pr., 3071-ci məhəllə (Baku Electronics-in yaxınlığında)",False,40.41339839,49.83609029,False,2025-06-04T20:13:06.712Z,2025-11-19T12:56:27.621Z,2025-11-19T12:56:28.133Z,az
10082,lc1sh55vxut2ucqilzaubrr5,Smile Gallery,DENTAL,+994519497969;+994124497969,,,"Bakı şəh., Nəsimi ray., H.Ələsgərov küç., 11",False,40.39184361,49.83601976,False,2025-06-04T20:13:06.706Z,2025-11-19T12:56:30.640Z,2025-11-19T12:56:30.954Z,az
10130,btnl5cn8wmjiimqom75ndioe,32 Beauty,DENTAL,+994125613290;+994125613280;+994125613213,,,"Bakı şəh., Nərimanov ray., M.Araz küç., 63",False,40.40695543,49.84494176,False,2025-06-04T20:13:06.571Z,2025-11-19T12:56:31.788Z,2025-11-19T12:56:32.075Z,az
9879,ftpbwpzsw77rdgihxgophhfg,SWISSDENT,DENTAL,+994998303209;*3200;+994124323200,,,"Bakı şəh., Yasamal ray., A.M.Şərifzadə küç., 34",False,40.37456407,49.80540701,False,2025-06-04T20:13:06.828Z,2025-11-19T12:56:23.264Z,2025-11-19T12:56:23.864Z,az
9986,smoz0vjui31rep7mj9u684qb,Müasir Stomatoloqiya,DENTAL,+994502771170;+994703262109,,,"Sumqayıt şəh.,  3-cü məhəllə, Nizami küç., ev 23/14",False,40.59447591,49.66969712,False,2025-06-04T20:13:07.698Z,2025-11-19T12:56:27.491Z,2025-11-19T12:56:27.833Z,az
9971,pnqxfc4ooko35b5bo4gsu6fc,Bioloji Təbabət (Göyçay)  (Stomatoloji xidmətlər göstərilir),DENTAL,+994502461411;+994552597090;,,,"Göyçay şəh., M.Muradov küç., 12",False,40.65385398,47.75102394,False,2025-06-04T20:13:07.474Z,2025-11-19T12:56:27.251Z,2025-11-19T12:56:27.503Z,az
9903,ha0dt960jtbob94fl3qi7zak,Assmed  (Stomatoloji xidmətlər göstərilir),DENTAL,+994505458322;+994124451717;+994124451818(ext.101),,,"Bakı şəh., Qaradağ ray., Lökbatan qəs., D.Bünyadzadə küç., 3A",False,40.32027542,49.73243596,False,2025-06-04T20:13:07.695Z,2025-11-19T12:56:24.493Z,2025-11-19T12:56:25.208Z,az
9940,ir4lymdlkoovbu4akro6byms,İNTERDENT,DENTAL,+994552627573;+994124992277,,,"Bakı şəh., Nəsimi ray., Natiq Şahbazov 36D",False,40.38736524,49.84659702,False,2025-06-04T20:13:08.485Z,2025-11-19T12:56:26.245Z,2025-11-19T12:56:26.715Z,az
9997,lxq5aalcjjzwhex6uii6d1nd,EN KLİNİK,DENTAL,+994125989222,,,"Bakı şəh., Səbail ray., Xəqani küç., 76 C",False,40.37573914,49.85256452,False,2025-06-04T20:13:06.758Z,2025-11-19T12:56:27.900Z,2025-11-19T12:56:28.460Z,az
9965,z6n3bbw4n063kzq54pv48btb,Mərkəzi Klinika Gəncə Xəstəxanası  (Stomatoloji xidmətlər göstərilir),DENTAL,+994502832803;+994222640909,,,"Gəncə şəh., Nizami ray., B.Totanlı küç., 17",False,40.6593975,46.3386882,False,2025-06-04T20:13:07.681Z,2025-11-19T12:56:27.092Z,2025-11-19T12:56:27.313Z,az
10026,lpb7db8kf287f2avsb45dhmk,Prestij Dental Klinika,DENTAL,+994775633030;+994125633030,,,"Bakı şəh., Binəqədi ray.,  8-ci mkr., S.S.Akhundov küç., 50",False,40.42486096,49.84422877,False,2025-06-04T20:13:06.672Z,2025-11-19T12:56:29.021Z,2025-11-19T12:56:29.389Z,az
10091,ybmulrxqod03s5qpmtifhdim,Dental Update,DENTAL,+994508050090;+994125640090,,,"Bakı şəh., Nərimanov ray., Məmməd Araz küç., 102",False,40.40649777,49.8443792,False,2025-06-04T20:13:09.475Z,2025-11-19T12:56:30.872Z,2025-11-19T12:56:31.157Z,az
9929,drtz64p59gbhvpron335lgdk,Sədəf klinikası  (Stomatoloji xidmətlər göstərilir),DENTAL,+994503087866;+994124463304,,,"Bakı şəh., Qaradağ ray., Sahil qəs., B.Əliyev küç., 33",False,40.2206548,49.57426529,False,2025-06-04T20:13:07.580Z,2025-11-19T12:56:26.007Z,2025-11-19T12:56:26.493Z,az
9956,aw5yaxlzgopy7hs1h4iwgazj,VA DENT Estetik klinika,DENTAL,+994552317709,,,"Bakı şəh., Yasamal ray., Ş.Mehdiyev küç., məh. 1054",False,40.3929919,49.8152537,False,2025-06-04T20:13:07.652Z,2025-11-19T12:56:26.781Z,2025-11-19T12:56:27.170Z,az
9984,xarrmq0ckqs6ueonfi9thehu,Dent House,DENTAL,+994702600962;+994123757778,,,"Bakı şəh., Xətai ray., M.Hadi küç., 7",False,40.39190412,49.95413667,False,2025-06-04T20:13:06.675Z,2025-11-19T12:56:27.607Z,2025-11-19T12:56:27.824Z,az
10022,wsz1lra9z5mvjin0064lvwuo,OKİ Tibb müalicəxanası  (Stomatoloji xidmətlər göstərilir),DENTAL,+994513640310;+994505971647;+994233852915,,,"Qusar şəh., F.Musayev küç., 27",False,41.4257721,48.4306896,False,2025-06-04T20:13:04.180Z,2025-11-19T12:56:28.841Z,2025-11-19T12:56:29.364Z,az
10039,eowo5ttzcudw272b1rrfwwzu,Dəniz Diş,DENTAL,+994702140430;+994125974204;+994125965904,,,"Bakı şəh., Yasamal ray., L.Tolstoy küç., 137",False,40.37259013,49.83449901,False,2025-06-04T20:13:05.492Z,2025-11-19T12:56:29.771Z,2025-11-19T12:56:30.043Z,az
10126,heoni7cxb0pgt0mmna8ysadj,Only Dent,DENTAL,+994552140430;+994125050717;+994125050718;+994125050719,,,"Bakı şəh., Yasamal ray., M.Seyidov 12",False,40.37603146,49.80814145,False,2025-06-04T20:13:06.173Z,2025-11-19T12:56:31.619Z,2025-11-19T12:56:32.049Z,az
10095,nr23vqvaxmxjrsnn9oej8b3e,Türk-American Medical Centre (Stomatoloji xidmətlər göstərilir),DENTAL,+994502300450;+994124973784;+994125962024(103),,,"Bakı şəh., Nərimanov ray., Y.V.Çəmənzəminli küç., 18",False,40.4018043,49.83348767,False,2025-06-04T20:13:08.936Z,2025-11-19T12:56:30.972Z,2025-11-19T12:56:31.209Z,az
9890,zlz4dcj6jjuth414chgbycqa,Dental Studio,DENTAL,+994505323036;+994125982887,,,"Bakı şəh., Nəsimi ray., M.Zeynalabdiyev küç., 6",False,40.37981785,49.85618327,False,2025-06-04T20:13:06.143Z,2025-11-19T12:56:23.616Z,2025-11-19T12:56:24.189Z,az
9891,pdppfnrtaiacqqnwwasupt1t,Oksigen Yeni Tibb Mərkəzi  (Stomatoloji xidmətlər göstərilir),DENTAL,+994502717179;906;+994124650023;+994124650024,,,"Bakı şəh., Nərimanov ray., Təbriz küç.",False,40.40365134,49.87001122,False,2025-06-04T20:13:07.507Z,2025-11-19T12:56:23.554Z,2025-11-19T12:56:24.038Z,az
9947,rbr2pzqd2uvhxez4s4xi24u9,Unikal Klinika  (Stomatoloji xidmətlər göstərilir),DENTAL,+994 50 285 21 76,,,"Sumqayıt şəh., İsmət Qayıbov küçəsi, giriş 2 (Nur şadlıq sarayının yanı)",False,40.57601423,49.67927351,False,2025-06-04T20:13:07.661Z,2025-11-19T12:56:26.432Z,2025-11-19T12:56:26.866Z,az
10088,fw3v3lf9jdziijvbotzkcrk3,Həyat Tibb Mərkəzi (Stomatoloji xidmətlər göstərilir),DENTAL,+994704047592;+994125599748,,,"Bakı şəh., Qala qəs., Xaşaxuna bağları 91K",False,40.42679529,50.21556673,False,2025-06-04T20:13:08.537Z,2025-11-19T12:56:30.775Z,2025-11-19T12:56:31.075Z,az
9237,krmpny546i1nnnm31kaj68au,Dental Harmony,DENTAL,+99470-773-33-00;+994707730033,+99470-773-33-00;+994707730033,09:00-21:00,"Gadir Mammadov 2B, Bakı
",False,40.36669894,49.94579941,False,2025-08-29T10:40:19.926Z,2025-09-17T05:40:16.283Z,2025-09-17T05:40:16.316Z,az
9275,bn4rohovn3t4jpq57r2b1wyn,Happy Dent,DENTAL," 012 4400024;0124497960;050 3962000,",,09:30,"Süleyman Rüstəm küçəsi, Bakı 1007
",False,49.83964,40.39052253,False,2025-10-03T07:23:16.546Z,2025-10-03T07:34:15.507Z,2025-10-03T07:34:15.539Z,az
10021,ff5pd93khp1hze9wfsru8n76,Sağlam Diş (Yasamal filialı),DENTAL,+994515250051;+994125250050;+994125250051,,,"Bakı şəh., Yasamal ray., Tbilisi pr., 49B",False,40.39485099,49.81723272,False,2025-06-04T20:13:06.821Z,2025-11-19T12:56:29.089Z,2025-11-19T12:56:29.343Z,az
9896,qx6tc2xo4bep7e6c8vpfjvsm,Şəfa Özəl Tibb Mərkəzi  (Stomatoloji xidmətlər göstərilir),DENTAL,+994503476649;+994705457689;+994365456432,,,"Naxçıvan şəh., Cəlil Məmmədquluzadə küç., 13",False,39.20106252,45.41196841,False,2025-06-04T20:13:08.124Z,2025-11-19T12:56:23.746Z,2025-11-19T12:56:24.345Z,az
9278,xxkrn426o1yjywufo04slvh2,Megadent Ağ Şəhər,DENTAL,,,08:00–21:00,"Xətai r-nu,Ağ Şəhər,3 park küç.",False,40.38798,49.88941,False,2025-10-03T10:34:48.633Z,2025-10-03T10:36:09.560Z,2025-10-03T10:36:09.619Z,az
9926,x0da9sn2itbp6ry8uny63pyj,Happy Smile,DENTAL,+994704411640;+994124411640,,,"Bakı şəh., Nəsimi ray., Mirəli Qaşqay küç., 49",False,40.38566209,49.84622975,False,2025-06-04T20:13:08.232Z,2025-11-19T12:56:25.753Z,2025-11-19T12:56:26.210Z,az
9952,dpqb4y904borzrci78s73mf5,Z DENT clinic,DENTAL,+994553330337,,,"Bakı şəh., Nərimanov ray., Atatürk pr., 138",False,40.41265334,49.84717811,False,2025-06-04T20:13:04.139Z,2025-11-19T12:56:26.637Z,2025-11-19T12:56:27.040Z,az
9980,oca3foxwzyoxejh0ewjzxk81,Dental Club,DENTAL,+994703792840;125410446,,,"Bakı şəh., Nərimanov ray., Ceyhunbəy Hacıbəyli küç., 116",False,40.39065439,49.84703111,False,2025-06-04T20:13:08.012Z,2025-11-19T12:56:27.377Z,2025-11-19T12:56:27.687Z,az
9899,wv0ad98qx21ik02e6gkxcnsz,Sağlam Diş (Bakıxanov filialı),DENTAL,+994556008123;+994124294224;+994124297800,,,"Bakı şəh., Sabunçu ray., Bakıxanov qəs., S.Qocayev küç., 39A",False,40.4168585,49.9644243,False,2025-06-04T20:13:04.118Z,2025-11-19T12:56:23.768Z,2025-11-19T12:56:24.406Z,az
9949,pb0qbqgum72769odn2g5zcto,Ömürdən pay  (Stomatoloji xidmətlər göstərilir),DENTAL,+994502867688;+994202053100,,,"Bərdə şəh., N.Nərimanov küç., 2",False,40.37396048,47.1214913,False,2025-06-04T20:13:07.658Z,2025-11-19T12:56:26.350Z,2025-11-19T12:56:26.821Z,az
9877,u20uqwclfuo785koz5pfayke,Novo Optika (Ağ şəhər),OPTICS,+994992030663;+994552133563,+994992030663;+994552133563,09:00-21:00,"Bakı şəh., Xəqani Rüstəmov 4",False,40.38230368,49.88089703,True,2025-06-04T20:13:09.641Z,2025-11-19T12:56:23.255Z,2025-11-19T12:56:23.828Z,az
9870,ib6q0jw5jil4djzktydrms5n,Novo Optika (İçərişəhər),OPTICS,+994992030663;+994552135243,+994992030663;+994552135243,10:00-20:00,"Bakı şəh., Şeyx Şamil 16A",False,40.36664527,49.82924518,True,2025-06-04T20:13:09.364Z,2025-11-19T12:56:22.923Z,2025-11-19T12:56:23.239Z,az
9977,ck61shq0h8n86kxjhhg2prnp,FOCUS 5 mərtəbə,OPTICS,+994506623360;;+994774080229,,8:00-22:00/7,"Bakı şəh., Nəsimi ray., Ş.Qurbanov küç., 2",False,40.37676827,49.83223961,False,2025-06-04T20:13:07.576Z,2025-11-19T12:56:27.162Z,2025-11-19T12:56:27.581Z,az
10029,pobilryhvicxj8iofp7h5gza,Günəbaxan,OPTICS,+994554555638;+994125102378,,8:00-23:00/7,"Bakı şəh., Yasamal ray., B.Vahabzadə küç., 5",False,40.3753653,49.81219317,False,2025-06-04T20:13:04.106Z,2025-11-19T12:56:28.855Z,2025-11-19T12:56:29.561Z,az
9924,zfcn6pa5i7jiiljbyvtai5w0,NUR,OPTICS,+994554558542;+994554558542,,,"Bakı şəh., Xətai ray., Xocalı pr., 34A",False,40.38208697,49.86921112,False,2025-06-04T20:13:03.790Z,2025-11-19T12:56:25.640Z,2025-11-19T12:56:26.112Z,az
10049,sl487lmejqmb9xq3wqxzhciy,Kanon Stimol Sumqayıt,OPTICS,+994554558563;+994186443583,,9:00-22:00/7,"Sumqayıt şəh., 2-ci  mkr, Sülh küç.",False,40.58688929,49.67082161,False,2025-06-04T20:13:07.903Z,2025-11-19T12:56:30.013Z,2025-11-19T12:56:30.252Z,az
10099,d0k0jczntaxmymqfm2u79a8k,Optic Gallery,OPTICS,+994512913644,+994512913644,,"Bakı şəh., Füzuli küç., 300",False,40.37632687,49.83456523,False,2025-06-04T20:13:09.125Z,2025-11-19T12:56:31.064Z,2025-11-19T12:56:31.358Z,az
9951,tbpclto38gpu8dda0vjf3rz1,MAJESTİK,OPTICS,+994506820504,+994506820504.,,"Bakı şəh., M.Hüseynov küç., 39 (Dünya Göz klinikası ilə yaxın)",False,40.34992864,49.83560259,False,2025-06-04T20:13:09.205Z,2025-11-19T12:56:25.913Z,2025-11-19T12:56:26.919Z,az
10058,xnbn7k7ueq3qlbebqml9qexc,Kanon 100 Semaşko,OPTICS,+994554558539;+994124494664,,9:00-21:00/7,"Bakı şəh., Nəsimi ray., M.Mirqasımov küç., 2",False,40.39433047,49.83492203,False,2025-06-04T20:13:04.069Z,2025-11-19T12:56:30.017Z,2025-11-19T12:56:30.397Z,az
10125,iwzpneh6by6hohnpj9ww3xka,FOCUS Neftçilər metro,OPTICS,+994506623360;;+994772555749,,9:00-22:00/7,"Bakı şəh., Nizami ray., Q.Qarayev pr., 126",False,40.40950739,49.94335554,False,2025-06-04T20:13:08.291Z,2025-11-19T12:56:31.712Z,2025-11-19T12:56:31.960Z,az
10043,yik206zcrz5ot7hpqiw0wydk,Medical,OPTICS,+994554555820;+994124648549,,9:00-22:00/7,"Bakı şəh., Nərimanov ray., Ə.Rəcəbli küç., 1/11",False,40.40919841,49.86263062,False,2025-06-04T20:13:05.467Z,2025-11-19T12:56:29.758Z,2025-11-19T12:56:30.135Z,az
10033,t6hz60zm0fam6xe7uzrvlfz0,Zəfəran 20 Yanvar,OPTICS,+994554556951;+994124318700,,9:00-23:00/7,"Bakı şəh., Yasamal ray., Zərdabi pr. ilə M.Həsənov küç. kəsişməsi, məh. 3165 (Azərsu ilə üzbəüz)",False,40.40408904,49.80633186,False,2025-06-04T20:13:05.764Z,2025-11-19T12:56:29.557Z,2025-11-19T12:56:29.857Z,az
9917,diw1a8oz8zi6u26ua5ftbm0s,FOCUS Sumqayıt,OPTICS,+994506623360;;+994772552767,,9:00-21:00/7,"Sumqayıt şəh., 20 Yanvar küç. ilə Sülh küç. kəsişməsi",False,40.58991009,49.67563996,False,2025-06-04T20:13:07.450Z,2025-11-19T12:56:25.382Z,2025-11-19T12:56:25.852Z,az
9298,fobxylngeaakj2h0a134dnyz,Novo Optika (Atatürk prospekti),OPTICS,(+994) 99 204 44 32,,,Bakı şəh. Atatürk prospekti 41/47,False,40.41134,49.84664,False,2025-11-18T12:58:27.474Z,2025-11-19T10:29:20.850Z,2025-11-19T10:29:20.891Z,az
9904,c97pw02lqn4c0wnbztijlifm,Yeganə,OPTICS,+994554558570;+994125690837 ,,9:00-21:00/6,"Bakı şəh., Nəsimi ray., Hüseynbala Əliyev küç., məh. 3018, 26A",False,40.41173092,49.82130271,False,2025-06-04T20:13:05.810Z,2025-11-19T12:56:24.621Z,2025-11-19T12:56:25.395Z,az
